Seismic Zone,PGA (m/s²),PGV (m/s),PGD (m),Spectral Acceleration (g),Soil Type,Site Amplification Factor,Historical Earthquake Magnitude (Mw),Fault Distance (km),Seismic Wave Frequency (Hz)
Low,0.7117942399318692,0.16164254748965523,0.14973503438383207,0.9548883841114942,Clay,1.8282521379854362,7.772090385968674,44.290883176217136,5.188905112811108
Moderate,0.9309853095303002,1.3515635135813422,0.16088024178396723,1.451687480295432,Clay,1.4282751557250002,4.503225864179609,40.95131346055515,5.774177555014332
High,0.202314186837821,1.1113545643077636,0.08297913479293223,0.3307679502698318,Clay,2.915545172959783,8.715840435409568,14.559696819879349,9.264941761247524
Low,0.9712805704641445,0.29620351686259194,0.39179755403092487,1.761644913146821,Sand,1.48825818161247,5.240364175767656,51.17023403106102,6.488921670181018
Very High,1.4736489714672123,0.4277953661980879,0.06212643312102862,1.739400497861177,Soft Soil,1.0156979838440676,5.551111954000616,13.527985808441347,4.205884445046938
Moderate,0.36615070969721863,1.179151164900553,0.31781842291742823,0.37833922839459067,Soft Soil,1.9589977653109096,5.685630505622317,48.1854251747435,9.310476653617371
Low,1.2096331628037367,0.6630794656752479,0.06279916732620291,0.6090193121652813,Sand,0.925617972579388,4.6701906144841585,76.59791459720401,7.870341535539163
Very High,1.3710583112914672,1.8827998844375005,0.036197283158885325,0.27026349576150377,Sand,1.0431949658788773,5.053734556156462,26.56817143082919,2.0800883190162014
Very High,1.4211822299483092,1.6556064360196965,0.45480532233925236,0.5619199181269054,Sand,1.2826566562317419,8.938574653248729,48.597830649793,1.3953393773533158
Very High,1.4441898461676261,1.9687776923759597,0.09587425439303414,1.4871248420058514,Sand,1.8215705497407118,5.918475318197787,99.20958097028674,6.7905351938530565
Low,0.8300434942100606,0.5933745940057865,0.41080382712529245,0.7431365321809411,Sand,1.7531520510798615,5.018854906525722,68.97839191204969,5.642843339212139
Low,1.4682310711881053,1.9424749023161563,0.2727708046824608,0.25027484414948925,Sand,2.5593220964061407,4.981460675285805,84.29432035921467,7.917768776548281
Low,1.1602342899882143,0.9193443526039599,0.039850403284776036,0.6817833921241377,Clay,2.4268442385450495,7.737569854514874,42.06991304949403,7.4141699957789955
High,0.3263400107317467,0.7602857110961337,0.4777686475275957,1.7683516682101763,Clay,1.737900246779543,8.345558988146884,77.01823138945967,6.289594185189399
Low,0.7676601490551579,0.19566410124177117,0.12423362232895437,1.170462111940645,Clay,1.534149256666386,5.656285347788114,5.010408121190862,9.865183499126033
Low,1.1056636455208055,0.20025398993324497,0.42996302733095065,0.8074736088904682,Clay,1.496231324935297,4.5940928055085575,13.168207071682254,5.382538328093045
Low,0.4462764421467167,1.4148213862986438,0.08523619288649753,0.38311547294535897,Sand,2.50278919204682,5.503905083004101,21.103988699086152,1.2197469893670265
High,0.9968612569684422,0.970065089424653,0.4271174981887846,1.7765005553822812,Soft Soil,0.9145592936867935,4.754320608585408,40.79324053690674,8.299908291678285
Low,1.0332406706652668,0.5303910894686008,0.007601177639741699,1.495443315747319,Rock,0.8282076289233329,4.9652772148351865,84.72874295425055,2.5933482872225193
Very High,0.3277796413319922,1.266543582017942,0.2563784478281709,0.5785114141665629,Sand,2.550197662238626,6.441786539314391,35.280339028005116,7.795291266624791
Low,0.8911194374338587,0.5804304246752112,0.38495184713135683,0.21911678272602209,Rock,1.8497220271759085,5.534632668877347,65.80749815803082,9.575360250400509
Very High,1.1802776753700508,1.197500333254403,0.4674629632288989,0.19626344754184866,Soft Soil,1.0879385048178671,6.821756453364405,71.22211518554485,6.998275588246979
Very High,0.7984539303503186,0.7824966192671116,0.45469186596703703,0.3046428541594075,Clay,1.3182450561079029,5.640721889657357,59.0320530547458,6.000698593403031
Very High,0.1169443634865504,1.6647492305624563,0.40999280990427484,1.0873065921445169,Soft Soil,2.851508696814242,8.732417854963265,36.366954848843484,4.657823139182901
High,0.11265385671100905,1.6593227054568807,0.44420748348099076,1.678897816049337,Sand,2.6909065463747757,8.576747855668192,58.128280829640886,3.7076576733544924
High,0.5998410815580171,1.0069657564325625,0.10041062323270117,0.9444638276101736,Clay,2.36152711049274,7.050627472547097,34.884293686184876,3.594747034621179
High,1.3966716958044947,0.7665563077365296,0.14280796356015266,1.5330073201755352,Sand,1.8608955067421185,6.094907963943237,9.303500116649197,6.400089786524947
Low,0.42014749144505226,0.7888636134622796,0.1451952939356082,0.8580072537616733,Clay,1.9447119776210486,6.21516096915631,99.28759384041543,7.537603857683684
Very High,0.9881091644203619,1.630857598769614,0.1891499115698477,1.304592027805303,Rock,2.945537977624709,6.353335274150236,13.59106290961858,6.817318987895702
High,0.41090621897064883,0.7235410173154627,0.19726701452220916,1.3441836533870515,Rock,2.9246949765454318,7.774106949607248,8.162489999769678,2.064260001816271
High,0.5503379855233681,0.49721281004300744,0.27273310700268305,0.39573830003567567,Rock,1.2735919007288354,6.532375479834771,87.97454417150844,4.990473083420563
Low,1.2872589254420777,0.260907849563083,0.08078000191985425,0.71406730025888,Soft Soil,2.5844300458717,8.355284759276538,30.881631428396616,7.9372367146123235
High,1.1204060191779257,0.9867169296803759,0.34593208522920865,1.1834136661146406,Sand,1.233933865567437,8.74842653668664,65.37940043327725,4.8094703740716565
Low,0.23355898823849489,1.0160509879476995,0.08461570311294873,0.2201842339134225,Soft Soil,1.2697824513446931,6.011757690205203,33.57156723656105,5.4125704693813885
Moderate,0.700182829381007,1.6977265497655236,0.1558439325701692,0.7146183191970262,Rock,2.287404675162069,7.02312516619056,39.75397280865264,7.734246876891139
High,0.14083766910337026,0.5203535232475215,0.25216922017247084,1.0091590926780272,Sand,1.6910024168926066,4.92775441574654,26.949184229662855,6.646526532024406
Moderate,0.7732462052442125,0.8238834199699597,0.39842384020021515,1.7935816381758858,Rock,2.8493976956343445,5.402110714948615,34.96135657350801,4.152514716735687
Low,1.0274076163814954,1.6359709038980128,0.3699951473861249,0.9067070564581492,Soft Soil,0.9958214167712195,6.36059595019572,41.659339658067765,8.964585840822767
Very High,0.26590367303741214,1.6648848604230497,0.3231216438488506,1.4872964870943501,Soft Soil,1.9253564097808848,5.427912221558005,72.32119084014195,1.7094139797684382
High,0.504438914472832,0.8307610443596595,0.07873085702950491,0.8345143846132501,Soft Soil,2.8207473669748673,8.444522208549229,51.642083229244385,9.955612841044214
Low,0.6569712757030196,0.9723356442446937,0.2739756274621733,1.4538642284535053,Rock,2.7890500530549116,5.212288152265941,94.41295649854072,1.2766405269147485
Very High,1.3873434345184696,0.6762431926136375,0.04463580439814284,1.1122051627541842,Sand,1.1443642695146308,6.550473696988914,5.146158990038775,0.24800471393196513
Very High,1.4905570215921495,1.8718542689966928,0.18930422522152873,1.6072122505540771,Sand,1.6066029402122042,7.225646582069441,50.80376394057079,8.91118712137277
Moderate,0.1628758185938622,0.3254231549090026,0.20734474861468963,0.7986023389951868,Rock,2.162067080102732,7.6133875867238,58.838254094340094,2.5250397328229655
Low,1.1654110928935488,1.874123903702793,0.02086590828343116,1.1273175136965141,Sand,1.1506687464970848,6.2238121637692805,92.09950162135311,7.324026311722537
Very High,0.6204136929632805,1.399346258487152,0.13772006163551595,1.1710317570520066,Rock,2.929648778500625,8.410945809261278,5.866693838521331,8.129052211827487
High,0.649441460721272,1.1099870901047892,0.4778690841659782,0.8095510010608046,Sand,2.812448523200853,7.057436179850665,57.776458908586385,8.603965271217957
High,1.1559709626858319,0.16205221549054216,0.47686267130701504,0.34533047426871855,Clay,1.1672903938758323,6.4777850120139835,85.50936292426775,9.91678293307525
Moderate,1.3857970050035722,1.0036327644618157,0.17681120007201712,0.25905099175097046,Clay,1.066542014774168,4.802582853234165,24.95084508380442,3.010993129395991
Very High,1.4313000323035678,0.8747213995051912,0.022506954365213706,0.1283416360193763,Soft Soil,0.9878986621781837,6.591102608003243,87.7529425038698,7.1314090850798655
Low,0.907971620453649,0.40631574275273286,0.0903683747247626,1.585008249216865,Clay,2.8007760608805885,8.193311283670786,2.8852975181548906,1.2424585969801996
High,0.5999696230207039,1.347178246651248,0.19671667892333652,0.5020073508057807,Clay,1.2259723815500139,7.265434581995919,73.51300828423925,4.1274119844328085
Very High,1.202568720202291,1.9451867239997431,0.4739420692866457,0.4595614737790057,Clay,1.7158268427975805,8.244731041781034,93.37820889569664,8.494919763794645
Very High,0.4514019365672204,1.1681587410225978,0.07145833270505528,1.3512601807243114,Rock,1.7874730044344067,6.723052517696875,66.06256850236616,3.739814655985173
Moderate,0.8897036403669248,1.458031225243497,0.3819944059904379,0.644027392248566,Clay,2.1178242972698484,5.0330776729251685,44.463895154064346,5.951844267302579
High,0.6020098461348223,0.2300558598754319,0.05523258714797135,0.9602759771001221,Clay,0.957817756244335,4.561379306261465,5.443220630799084,5.087357092873877
High,1.0192835031910266,0.8935672920522899,0.49064753111824716,0.37626881100567566,Soft Soil,1.2988689582811352,5.86448796023366,92.09126751894024,6.494920158009246
Low,0.43655847805090964,0.3210811218125421,0.19142663305545835,1.7315677264853477,Clay,2.849278851221637,7.640957121740066,47.559326046465905,9.73165445493818
High,0.3682301240287561,1.2643120875193699,0.38784203491062896,1.5476883800293035,Clay,2.798502235990853,8.056169567737623,3.8706776892588532,0.651781712363881
Low,1.385534721345612,1.8831161006068937,0.1719529503227548,1.5684423590405057,Sand,2.5188394242925227,5.830887755791482,69.29228606154743,5.782219023266134
High,0.24252515612935166,1.357377691696113,0.31420676970224554,0.7915153725724088,Soft Soil,0.842682740360074,6.730442643974612,48.70188810404956,8.64398491457782
Moderate,0.8083410708289043,0.2459257917974009,0.09681602628527833,1.3960140633021938,Soft Soil,1.5194148906914249,6.395035069953368,13.310186426798662,4.865688846309432
High,0.40919389614821244,0.7738657894716573,0.07386448862918431,0.34458946416262626,Soft Soil,2.1815092177543973,6.347352529581425,22.212909121715697,0.8774191408215709
Low,0.15450194865593442,1.146260420937618,0.4690940056444975,0.11465230440602647,Soft Soil,1.4054184659016467,5.5410692094006775,7.384577365128781,5.649339588926032
Low,0.15042634560799695,0.8660947366531792,0.4589059916743123,0.1339539853826478,Soft Soil,2.80109072911831,5.113669972632563,57.85506043114878,3.3875315191558224
Moderate,0.3453104809481583,1.6839236199028274,0.44384700116622827,1.0972229535877527,Soft Soil,2.194556816031372,5.385098512040459,62.58091844594892,1.6339236748455654
High,1.3134784963084003,1.6478749089489795,0.31309129163313015,0.8741713389214993,Rock,0.9581947780961804,4.748995742235057,51.06848753718899,8.505441681506383
High,0.49547024156783726,1.2624789381961208,0.40432583739692285,0.9806260931444836,Clay,2.7998122954385467,5.3915883382060965,81.89311116725888,5.263835178612104
Moderate,1.430642838805414,0.8095700957521399,0.03544943151877608,0.112687338709273,Soft Soil,2.90708664798769,4.541404039314208,86.23987330949335,9.33943648255276
High,0.9142712101848709,0.5851391101501638,0.1680597319034489,0.8185672534176237,Clay,0.9709673204617961,7.3226628028619025,61.94681527162954,8.079563395570384
High,0.7112598656762724,0.30116120460494566,0.15753785925382097,1.3207158740414635,Clay,1.971192516694893,5.923689333244573,2.262891491035624,6.960420758359307
Low,0.9121243685372363,0.7743055986244526,0.31818701565435403,0.8525792933446409,Rock,1.467401420871175,8.879151201421088,69.82773591902583,0.14975248331658816
High,0.8233777393167748,0.8850277826946671,0.17862292896184961,1.344772650730778,Soft Soil,1.6642459682590853,5.37172672849334,42.381922475114806,4.3354522207186745
High,1.1622867552602552,1.3840635576977398,0.07510488404019672,0.49613223947461915,Sand,1.1952326795017523,6.056228566393172,56.990190839412314,2.05511418835512
Moderate,0.49549449236199317,1.3505036661653895,0.2986370706313583,1.4823414076189334,Rock,2.071758624427308,6.1102852138868995,65.25897959986956,9.11689931938379
Moderate,0.5942705482404234,0.2332054653183882,0.4073775764138717,1.100333108770869,Sand,2.9075545771475593,4.538031732281072,35.673424818380596,1.8283814482959668
Very High,1.351732023546551,0.8509926993191997,0.1916796237355266,0.45829726903084056,Clay,1.90675972059754,8.276435788677565,91.79275201200763,2.9319945114269266
Low,1.4250391184105677,0.44537984771298766,0.06700208883414237,0.502424808951516,Clay,0.9824120790678585,4.643975070649462,14.263511808228339,5.216684000571542
High,1.3495815184810642,0.3979441401019308,0.09914741045909871,1.167651789768213,Rock,2.1640029336502984,8.730809256281585,67.4796689208227,2.7072998280809846
High,0.6872271915402389,1.6718740845007674,0.1195041692795226,1.5108973084611539,Rock,1.5484905877927657,8.514334579921293,1.4315984157014623,2.1776603050633
Very High,1.1925117042096343,0.1796389117608893,0.15064889890427358,0.8065672294495637,Sand,2.6830354171008555,6.909848622386836,92.5404594351129,6.031083318517249
High,0.7668700266215382,0.8964474642140304,0.32175474018264827,0.5391107295169068,Soft Soil,1.7562919262962347,6.946180087100814,12.137909190571058,0.9804022752747362
Low,0.796555793004543,0.41958694595638457,0.3008717967843218,1.5739197317480207,Sand,1.2242471396729404,7.442000653302704,10.39353878460989,0.6758608113371547
Very High,0.3865521526801975,1.7707274097891006,0.3483438509219525,1.2377560959764193,Rock,1.2204323699205188,6.2417250537069915,33.96775567217218,3.785228422342107
Low,0.927582424561923,1.1583769752225668,0.18188849028122506,0.8617453283812301,Sand,2.491281197586553,7.41250027529035,37.98306231786898,7.234578099627837
Very High,0.36059025685468715,0.5396232091160112,0.4121748282881092,0.9294303319748131,Rock,1.384292716276192,4.701457749098191,22.215707159964982,5.592586906912085
Very High,0.5641905786940713,1.054611845616115,0.10283974291672437,0.4472359954918739,Sand,2.4879134671502907,4.74321432307377,58.92704443178535,4.28647703782111
Moderate,1.2970422822679093,1.48982408343592,0.2350513330115588,1.1655644711102346,Rock,1.2529520836865187,6.55753688828795,44.848495706154395,5.700940485823366
Low,0.38990613289519727,1.9204242169469241,0.40066842204917374,0.7098622679229106,Rock,1.5077100111428807,6.973300354977157,4.383383315067654,3.717969698067409
High,0.19962159924280592,0.5188474080662959,0.09089916521857701,1.792596800346394,Rock,1.8240713393673387,8.495179381511186,32.64555416327477,9.367848720777918
High,0.19661062965794282,1.7837453670457557,0.05582169375665069,0.9163119759452093,Soft Soil,2.8750308693255917,4.9709728525855335,81.23285844374388,0.6435584200166659
Low,1.417098328704351,1.8751778169182316,0.44195829987630686,0.9260055305223424,Sand,2.8498091344584147,8.201915672372502,69.28045195132499,6.7665756423953685
High,0.8096886131465684,1.841199034610926,0.17212190171683875,1.0619480385981421,Sand,1.2551181259290332,5.445213017814313,72.76221450440816,8.92369838179473
High,0.6731769005438256,1.3072872780376288,0.34225119232960693,1.6584852053018695,Sand,1.5880818907347602,6.273376418295143,70.11357548426884,8.05845861647901
Low,1.2352300134110858,1.2966592434259447,0.013648953527705301,1.4613907697615756,Rock,1.1286786545982992,5.924710956723358,31.786329116920296,1.9220062447323227
Very High,1.2701562990747224,0.8661002030492632,0.34533339731631535,0.8669211186563304,Sand,1.9219671744896938,6.300698727894296,10.866728285600812,3.0296708549048548
Low,0.5650674463618465,1.529555976377197,0.1587345544619383,1.3217887521537532,Sand,1.8132816115282666,5.177229741326635,27.974251219276503,7.198774593200336
Very High,1.0710652804633134,1.1094586348667708,0.02881468594013343,1.0966003479272948,Rock,2.781672357391612,6.766065334815997,83.34674471833077,0.9342785358895788
High,1.1795719421926412,1.3871323353337595,0.30529656801251037,0.9370239827921232,Clay,2.84601183114036,8.107391654241152,98.06660898052404,8.137430828342582
High,1.0165109616123362,0.9140700173127113,0.12116110422051345,0.42693681373339587,Rock,1.6438482602160427,6.486903046705036,49.89085445941457,7.217178751587424
High,0.3122331047201391,1.4898432816819642,0.19401681378388813,0.8886916478733146,Sand,1.8818234746417768,6.7077610915418955,1.96033513738118,7.323105827429892
Moderate,1.3262363169238798,1.6664958834486432,0.041209825330970284,0.5178915979383769,Rock,2.771719748121493,8.319454133765914,14.864436401288675,1.092389565649155
Very High,0.8547323738304121,0.37822888754535067,0.07443446229637772,1.655231654747813,Clay,2.5747571770391353,7.677261515871139,32.885976956310316,7.205829393680685
Moderate,0.49546139691800517,1.6825664595910332,0.14969064051242603,0.6701915829437898,Rock,0.8080438849582284,6.707044838339032,58.279949510702025,6.830199439677703
Moderate,0.6953194596127714,1.1265634104015838,0.04578999077951841,1.7188488247067328,Sand,1.5041310412038817,5.659630416851309,8.434270934726083,8.32613265913632
Low,0.15259952655847034,1.7048652272714262,0.4555023060784713,1.006193993161009,Clay,1.7279033322594772,8.48217036080235,94.39237257227828,0.5117999669390481
Moderate,0.2790135217113846,0.9194732420479277,0.0040174745488052305,1.1736254437494726,Soft Soil,1.30537582410311,7.0965918076075125,37.14328365515567,0.32879561783114275
Low,1.1717654507222053,0.8201769222277665,0.2424462492132914,1.0229987556318572,Sand,1.2390575549710654,5.49516424549812,91.34583757455748,3.7927702887977515
Low,0.10001628865751261,1.8386153917827226,0.06250048160814317,0.31994704884339153,Clay,0.8831259145104953,5.711038886871046,78.27165847294515,1.5730040101066136
Moderate,0.683192159875209,0.5772216083419625,0.1545318656494963,0.7388960723134996,Clay,2.2154133951534734,8.114098900213106,75.78828997904253,5.628006327945196
Very High,0.8315142535198238,1.7040034180436718,0.46310372034931446,0.2685483908719607,Soft Soil,1.3775226390629647,4.698655029393549,61.06523839844097,9.181754124916814
Very High,0.1764881880013612,1.0196390877678678,0.08168558208371944,1.159021875111749,Rock,0.9151637925488889,8.96441484162969,63.05159788813262,3.975649330306756
Very High,1.462309428161266,1.0767813408473934,0.482950327539448,0.8596861318407462,Rock,1.30815448316174,5.086582558716563,64.16232028640857,8.465008734998781
Very High,0.4165754637495407,0.6860897348300196,0.10369139411772144,1.4225744516705927,Sand,2.5642106962394786,8.082308364286218,63.24341731553263,0.1023846577268781
Very High,0.5258782074907932,1.1887801811761298,0.37104148812494797,0.47479981769892876,Soft Soil,2.6732761996224026,6.276488925472573,55.81909490843776,1.7682949702459239
Moderate,0.5255195171570383,0.7179012729248014,0.27379195518375854,0.3797622993298694,Rock,1.862745739425266,6.714972824793601,98.654987829806,0.40119304257544763
Moderate,0.4225833269642898,0.17461188705913938,0.4423548850707828,0.7907647926384053,Soft Soil,1.7153554748991096,8.4629275985906,73.49676617514392,3.3486570870991796
High,0.10206335092083599,0.6167973501542764,0.2774426344960623,1.675195151471248,Rock,2.9512781257039205,6.3581003531514595,77.91769245085959,9.091076997395378
Very High,1.121082711723195,0.1121201824725223,0.26774505035899804,1.3077170855211,Clay,1.241242251093754,6.918721891529556,87.37381869328374,1.0598260236299788
Moderate,1.4535836997189995,1.9588740954080277,0.09853354218383155,0.8121701621479617,Rock,1.2737904222801388,4.721848480841265,22.348336509859067,6.103456789763624
High,0.4140108765990631,1.9349196986575203,0.0839484516637777,0.9793626885823279,Soft Soil,1.4421077894800796,4.510563632403539,9.296611750411017,4.569809797282497
