Seismic Zone,PGA (m/s²),PGV (m/s),PGD (m),Spectral Acceleration (g),Soil Type,Site Amplification Factor,Historical Earthquake Magnitude (Mw),Fault Distance (km),Seismic Wave Frequency (Hz)
Moderate,0.42111208785274123,1.7371632809282918,0.41732807307894987,0.4836297911884936,Soft Soil,1.6126418246816874,6.535455649354333,32.91150735001342,5.38847992890533
High,0.7567500954666101,1.1965224565370223,0.2890993472086142,0.4600568547985546,Rock,1.9127802897031256,6.409750581326296,61.4289927977613,6.821139906511098
Moderate,0.4759870344350996,1.7922510653775006,0.3235572802388164,1.4473176049562724,Sand,2.032767083570712,5.2054332641968255,93.97176113271382,8.748240062498866
High,0.24136934954486552,1.234195924485028,0.2297233762337268,0.4177424039652009,Clay,2.4029533449441094,6.418827254213878,67.50273920727085,4.3794857491028685
Moderate,0.3344875247317508,1.6393060709234348,0.26482495262214223,0.21332171069962036,Rock,1.5806605915474483,6.9183762236991315,8.399844459995235,4.186354420213057
Low,0.30618578897292725,0.916379390374781,0.018154052317510883,1.7975533711955687,Sand,2.147905558284136,4.601269473429089,46.607812374731246,7.666031646438563
High,1.4623075170772175,1.5247338694477106,0.319842547964669,0.14218925945675354,Rock,2.087825930140104,6.498508523289329,89.19158901955213,5.8672829867157406
High,1.163009509685863,1.8347787870907264,0.041642159232688436,1.5199149022700718,Soft Soil,2.0047554214382437,8.016102982778401,10.351780154307601,0.8029671242036267
Low,1.4548660513773868,1.187033631072192,0.21807228257577146,0.7211236306361097,Sand,2.2090632449128673,7.560207253684214,98.89869550161679,8.931908955341704
High,0.7156366811110719,0.44349178606852113,0.1470348937360365,1.530746281588286,Rock,1.3707881763497678,7.358206449887708,94.95786997089671,0.4047527121526374
High,0.48971587432771924,0.6107154685573765,0.2731685471556448,1.0428548350589464,Rock,0.9862272578861838,8.592999427967412,8.74917359225771,7.509123926476456
Moderate,1.2176104760928614,0.477424696105071,0.06757475142608034,1.6327730901268123,Clay,1.0623976784874356,4.581144044213535,93.40791872450593,7.6120620127726975
High,0.5567554852576054,0.5690283524318925,0.3461300575846858,1.6745280769048654,Rock,1.2940812418385823,7.006714137865053,36.950126435686755,9.535799744291111
Very High,0.5191367231874876,0.6821893537669691,0.39771075692730673,0.1154669081773192,Sand,1.9004354581501277,8.043069817843682,84.62620754051039,0.6359306431829754
Low,0.42550838909096367,1.1547541948310582,0.0825138704218351,0.22820069918774005,Sand,2.6489740512012445,6.936009222155702,42.41995043361388,6.00888292176646
Moderate,0.2815505695139295,1.2171840959812823,0.0530522305885892,0.5256098402704543,Clay,2.3428453525944453,5.957529986611706,44.64465615754907,4.335621649207824
Moderate,0.4590482854234723,0.910349519759536,0.07361222591089221,1.237836207817953,Sand,2.5358893292445037,5.1131275429139,63.79006600677672,3.3732662531094664
Very High,0.5974476478634427,1.2692994816595873,0.43868665338735235,1.6100627340695604,Soft Soil,1.5721463726374012,8.494033823172861,77.67326450832235,0.994153746960823
Low,1.0435918914040225,0.25499235866159525,0.26456644161642173,0.8819013171997366,Sand,1.6902382316268105,6.618430765744213,4.345125943876615,5.670275784745961
Low,0.1875907791072322,0.26679765041050396,0.2341632370077438,1.1318542976662513,Sand,1.6661001491793483,8.451518386435657,59.722443557186295,4.842503184178675
Moderate,0.39470971553148015,0.426475974679551,0.05424919773207478,0.42044974975245397,Rock,1.2221210056899035,7.1363345509492575,19.48656641563973,1.1350891356951402
High,1.232633096408347,1.084347246276655,0.3251284473717239,1.468443617598865,Rock,0.9346766479158585,7.533864524767504,35.24900226845709,6.1636461202611255
Moderate,0.305690693017279,0.5065898895267957,0.43413179635564986,1.7444577893008986,Sand,2.1000154042198993,8.119175194703026,35.44889794936643,7.405735890504091
Low,0.5797032051315302,0.6382403666358969,0.41426474879240305,0.5566181859548157,Clay,2.97627670352529,7.466199950700604,47.43697368189421,7.6960551804311175
Very High,1.3105224906013961,0.8605943887286887,0.31340129978141984,0.9412041177209287,Rock,1.1670253508905784,6.29124678305522,34.079504775741164,9.063194563798032
Moderate,0.3168954356008197,1.6425456356197217,0.03856407960918514,0.24639738786083545,Clay,0.9027066037784023,6.811350227678929,11.628750726616108,4.1537603446988935
Low,0.21583156986546587,0.12633805823443423,0.05708611656083047,1.0505323159870463,Sand,2.514969700012653,8.113704861041459,15.417245114019693,9.535420409359157
Moderate,0.7783531931120151,1.3338197584495826,0.025605184567802513,0.9547318511393569,Sand,1.3556892147063935,6.181426333678429,4.310360570548669,8.667751110318592
High,0.5233873157899509,1.3708654089773022,0.12948212902974218,0.3455420230636319,Soft Soil,2.6252163717764425,6.246546555458237,47.554659447546676,3.0353655531369967
Moderate,0.8887717102773957,1.6174459826776095,0.0686950721130285,0.8515125623007275,Rock,2.348660667475934,4.930605522261005,95.49032179044586,1.676902069759639
Moderate,1.2253268466768652,1.872230584214595,0.13076397208596452,0.6679779085471576,Sand,2.8804817815117705,8.615629958497864,12.451847141163539,4.410355021667333
Low,0.29200788341384043,0.13826191300365068,0.1931439698037619,0.9871124880188218,Soft Soil,1.6996399186646785,4.909663417254488,94.68018480730512,4.07879720876407
Low,0.9129787183759989,0.3921890404751107,0.4715484092514967,1.0956123702289586,Rock,2.2563336467913953,7.416941298518502,73.60278995847726,5.799621122778922
Low,0.8077122645458095,1.7837254587063869,0.30557765383106433,0.11444248363225618,Sand,1.8226805177891956,6.359375154612589,64.11238149048215,5.875523700044705
Moderate,0.30171030041847935,0.9711852681553291,0.4176519190557982,1.393710171014244,Sand,2.187295134078796,6.32528725614949,64.88249777703273,7.524871145361755
High,0.9735978797405753,1.1727222139735807,0.35546539885545375,1.3121242961649595,Rock,1.7891175932170222,7.557983264577078,82.84603719123193,5.14791048723554
Very High,0.48309658500508024,1.35975168707398,0.05713906213278924,0.7226868565510877,Rock,1.2149909421329648,4.8019217968344545,11.585066573602315,1.137744145313579
Very High,0.7829680459616174,1.3902265485417111,0.3682242827806005,0.18999109046699103,Rock,1.917374315207438,7.171676023281456,50.97067803298863,8.59708422197575
Low,0.21518125398788662,1.8703067663013655,0.13827434189800308,1.3833853176345856,Sand,1.9628852431623733,7.974143036875597,70.01202268781509,3.166669373533352
Low,0.7434176800990722,1.9942038930821724,0.31991481565035845,1.7237977728128253,Sand,2.583328466172355,8.226957410489675,59.0952240622828,9.715844857035261
Moderate,0.5290488552599484,1.4682991757687864,0.17114002484785126,0.5082577132374241,Soft Soil,2.418145552745879,5.267386752271989,83.44512803130617,1.2668150759297245
Very High,1.251333695659496,0.6457202974897865,0.49883845936906496,0.6499918433529643,Clay,2.260341572671177,8.53838572535178,8.154899192123798,9.586686605101782
Low,0.17977021779631558,1.7715295643592528,0.13251218826889213,0.41248191211908547,Rock,1.0494516102156597,7.45265741331349,69.37940291041743,1.0010168881369181
High,0.6860501848856618,0.19351973762744706,0.14028610491636057,1.0807914096862274,Sand,2.385355839460173,8.468346603693073,53.86874530808706,2.387257765675889
High,0.7418039937840132,0.5390536204615428,0.4654054555256367,0.36323037090067345,Sand,1.9006713439799328,6.683763226995892,38.5369255340144,0.5611414266567618
Low,1.1150085068187663,1.8050328631810582,0.01329755791352501,0.705529703884345,Rock,2.7670189794335505,6.939150052937409,34.68722324116906,7.08062015172605
Low,0.9040026051262954,0.5867638774347744,0.34864780494872527,1.284922123688247,Clay,2.8237160550871945,8.63567224662902,62.462430644645096,8.517957492060738
Very High,1.0340972720718535,0.5192370132813221,0.3629378689772032,1.0521971711158922,Rock,0.921344499323928,8.549592945096023,89.20854208978221,4.397303709978206
Very High,1.1878689999124585,0.3624380569664698,0.41835291012778925,0.7569863593574899,Clay,2.6054114327798534,6.516723930160509,50.12141668401041,9.292368542920054
Moderate,1.3070841631214642,1.7323123395291413,0.4872452160085992,0.8144243230728212,Sand,0.8829342589298754,5.734856842360568,82.64759324361509,5.943960810380436
Very High,0.5394256954114587,1.0501106924630648,0.48782535765916957,1.0555885004594903,Clay,1.60777317652905,6.269266955539189,40.813481802552786,6.3370706409205795
High,0.853231787509464,1.3822970858028942,0.033573102025665484,0.10997003740817422,Soft Soil,1.9930599463663743,6.244939478383873,11.137051816524478,8.469650096837622
High,1.2761513098148798,0.5542261297425564,0.4110978220536983,0.23346677637113675,Sand,1.1258217569796805,5.790900937422573,7.089067909405216,3.038322030013205
Low,1.485231583351079,1.5402767999213114,0.3235086568950333,1.5981387151971198,Soft Soil,2.441890387651969,5.70860821949835,6.08210276104408,3.6072306411434956
Very High,1.3453270354612683,1.5440105354279872,0.3240237250521725,0.2323942814551943,Rock,0.818380349178705,8.374783214158738,38.63486405380932,9.068924000026978
Moderate,0.6200541676741275,0.6939362473257702,0.0650466133807327,1.301566113557859,Rock,1.1709179065548811,4.814378643080977,34.38653733274836,9.019538610783762
High,0.37323312410611054,0.8802970027195374,0.325443396056381,1.6640648789853894,Rock,2.0777530256776466,7.5492503194481735,72.07576533863438,9.767179484388622
High,0.7851495523692241,0.49841152711738157,0.49125880772002267,0.5601621273129429,Clay,2.371652636482043,5.277690231554035,74.53932865690172,9.028199332772544
Moderate,1.1382980325704593,1.955465944313518,0.45599746620018405,0.7298354430011742,Sand,2.8166148259266155,6.050276520273284,6.034542914540243,1.360983156730273
Moderate,0.7895966990546166,1.326644896410982,0.22012619974162043,1.0671663899360178,Rock,2.3520926342561728,4.776943653606766,22.89120302601248,8.254870432756174
High,0.7764532086391358,1.8756333733594794,0.020934038669761075,1.5989052483855941,Rock,2.277914394560705,5.714881365849579,28.15192316573107,4.157400933284981
High,1.2735225895145208,0.676432532895353,0.18178445151010222,1.7012394983427144,Sand,1.6675505219714615,7.957894820027589,55.213586430138136,9.908933423864784
Moderate,0.6059652906940608,1.5855927346940906,0.41336876548867707,1.3572575217891558,Rock,0.8028257361589631,8.482568960462665,15.307007166788075,4.775581546855131
High,1.3037125447363038,1.5551314233810098,0.35104805163111785,0.24725359345297984,Soft Soil,1.0643503692183685,5.496872183560652,14.260180720600037,5.582977216771984
Low,0.6695267213324129,1.4141457385464289,0.23021248414138423,1.2375620644092464,Sand,1.9760199984632862,6.585965276665148,94.43510003158784,5.344771661042305
Low,0.5595263479496752,1.934714053006921,0.028495666044256716,0.7975163271835255,Sand,2.2852857488577234,6.6164582157174285,80.61608782248032,3.2851965955969504
Moderate,0.7355858756795786,0.8477551386019995,0.214020469183828,0.9001916991348047,Sand,1.7183862245722175,8.431088875918803,18.88483530702586,0.8427186800398899
Very High,1.1674257421448158,0.3483629148205388,0.23504344491922388,0.183552263586801,Soft Soil,2.407493825362459,7.932595737941124,41.2502129826436,8.966947180978993
Moderate,0.27640283900959195,1.3762468325637154,0.46434921091417386,0.4248056368888089,Sand,1.9480970497307935,6.808847482656224,36.20657792649899,8.04649054401024
Moderate,0.3749869022208243,1.4856886209066917,0.32090196568749757,1.4438731328072012,Soft Soil,0.9631876303074869,7.51836240212298,79.30940333247533,1.481315127540726
Very High,1.4320227559283287,1.192615089571748,0.1565148054106698,0.8717300161813616,Sand,1.2224357521294875,8.31309774259215,51.51107873133408,7.790005886365721
Very High,0.3456882783339003,0.4929539969534529,0.26313381396090996,0.6128258107729531,Clay,2.6479960911366747,4.542925293114952,13.657123962353236,6.295881993901039
Very High,0.8948182451034763,1.058466289171775,0.03396159860325788,0.7528324257404289,Rock,2.394808042573767,6.3130051397252185,74.16021425246815,4.150523500384461
Low,0.9110402533267129,0.6931604994813458,0.4863115495892187,1.5524791726536564,Clay,2.7684763714274894,8.582594252746855,40.291909844266975,2.6148093760460713
High,0.7854742468703426,0.9121864035167092,0.1806698910634323,1.3732983295884267,Rock,1.0586259480660605,7.8314086387977815,27.02950051558256,8.611314956672102
Low,1.002643348007546,1.3259152941048615,0.23945581010165476,0.5629361752078407,Soft Soil,2.978489576153163,6.942786184503336,38.17436358005129,7.031863767011125
High,0.42175741611666573,1.5159080111125856,0.17828670314422437,0.2997531283610346,Clay,1.260694770689854,6.8834003716581,50.27789979708274,5.5226251037444545
Low,0.8737271748874474,0.541226912712552,0.3415733533279839,0.5283969767949219,Sand,0.8259157278306125,6.06496543921997,34.96843612528394,6.1347284855947946
High,0.6210425573456559,0.8701181852292112,0.3314538470064669,1.6652859667930473,Rock,2.9943304659178196,6.842342401386816,24.948671486584026,1.0015552026135917
Low,1.0263341634808647,0.6114069848840954,0.3579458329540387,1.088701024344584,Rock,1.418362547979249,7.44922439758554,40.451700851594055,4.791805633020799
Very High,0.29771296072240927,0.4774000663375513,0.1348034715763485,1.0069163548661308,Clay,2.269642795527632,6.382633672929568,2.898118164239926,2.0176328985784497
Moderate,0.8992283835752667,1.588435717992093,0.15851857210086892,1.1138691194771846,Soft Soil,1.1887010911878715,7.713689158764783,77.47728676353508,2.1629984221873713
Low,0.3593784975366532,1.8275801194302856,0.06350036431700777,0.7222480517690759,Clay,2.076502770838112,8.375545022671737,17.923544463190993,6.6469092266399805
High,0.4901002883610509,0.8034411528006957,0.3280994759512102,1.4720819345431717,Soft Soil,2.7888769702000307,5.196081816831875,5.346556749433088,9.121435903159453
Very High,0.4061937204530165,1.527429956310157,0.020858766540490622,0.9895866238104246,Soft Soil,1.5043985683425651,6.531961602678409,65.71617059760284,4.097190443735631
Low,0.35597289181634395,1.804291049792381,0.29924348542620605,0.2984714347069524,Rock,2.2745587472975903,6.336090410782865,77.61967675354356,2.156717802820685
Low,1.2559953321849338,1.70763600000744,0.4349782465409653,0.31941071220940703,Clay,1.2133878953565165,7.593591618223776,81.56908402769147,6.522594678642877
Very High,0.49999059472524643,0.4473454382245292,0.44552524199652715,1.0126605490544511,Clay,2.174549877181196,5.624403593660682,49.857409083399396,8.724751758868145
Low,1.397973294610229,1.9169545748753865,0.22506984242461087,1.6921693707204266,Soft Soil,1.5401907739985226,7.381129117285243,21.331450284308545,7.508356131112659
Moderate,1.4578971354832673,0.8156852368159786,0.23019254041832382,0.6241986068495379,Clay,1.2646581688934937,8.448701587791696,73.98554004773285,8.700696582312213
Low,0.8997646579119362,0.744557256230289,0.03940762232100067,1.5782199870606712,Sand,1.4890005115479974,6.381592199071302,70.27159463827938,5.411891243006913
Moderate,0.30020157173201695,0.21861952182778263,0.3357117476960748,1.3989624971840948,Sand,1.1934503507171588,8.59957064990649,25.380802676214152,7.54357481925499
Moderate,0.6243675407314138,1.0237299427992776,0.4108084507660499,0.5212811529417416,Clay,2.7842154372433425,8.969236825200653,90.4373678304165,1.486639137653471
Very High,1.2168251686874996,0.30712586971776457,0.1230828722477518,0.16177927213761217,Clay,1.6738111498976835,4.977414224765784,11.33277435020007,3.547918692095596
Low,0.6143470201758986,0.5722256597621094,0.21122913993504897,0.2731403507420507,Soft Soil,1.3396144709436082,5.548739345931864,98.28613571954124,3.9565367283670723
Very High,0.22182410562390426,0.7021909813578345,0.4195808290458699,1.3384396875406483,Sand,1.7864972502350525,8.77670888166942,86.164533286769,5.161827887835742
Low,0.879498875299463,1.6367700146341997,0.4386831133634817,0.4394385546690994,Sand,1.5051795669742902,8.81247458916624,69.10196590242845,9.297855966542555
Low,1.2831691920944488,1.7634284357522034,0.12234681015184874,0.7311605648591694,Rock,2.4377223583893173,4.939682739240413,93.93623893970346,8.755535946199526
High,1.2142969420009033,0.6746860031767924,0.2757347466361407,0.9528885822109222,Soft Soil,2.936683806148088,4.567493251697115,72.50880566404707,1.431802373662927
Low,0.3451723961824945,1.7315264303646904,0.0970540821672777,1.3332958863652768,Rock,1.7636740447348231,5.2249501046539,19.855242705974547,1.8106175536363858
Very High,1.0418704601774533,1.728738781002603,0.051837503305638716,0.2924930795405132,Sand,2.694273479938929,8.982057525220117,44.77345767316836,3.6406414409302226
Moderate,0.40870596880990595,1.5528368057312596,0.4556491301945868,0.7908228889716845,Soft Soil,2.0448987618311634,5.309998274748091,8.0787994088319,2.978364272317672
Low,0.4054905483730411,0.3787207166288449,0.41043324461182246,0.9246239455425822,Clay,1.1459184632073138,6.761464230249104,39.576084806523426,6.186232436246996
High,1.3237004826272591,1.411613409111385,0.3802574159997838,1.0194060087516175,Soft Soil,2.3193700325789517,8.3178797689373,74.41869895398365,9.037482872868994
Very High,0.4495365338363222,1.8955457227030807,0.02533439308775707,1.4912130903718683,Clay,1.9295558936768045,4.591807248096929,39.257891742150925,9.626686262558609
Low,0.4685462851252157,1.3968269096575985,0.42202066756241846,0.3918529315734688,Clay,2.2313343511546275,7.220200420163067,33.69912337134528,6.570669230098742
Very High,0.10091474706581938,0.7300720133048845,0.21958399387678648,1.473313468105258,Soft Soil,2.757312307657663,5.74661451991331,59.94021652852088,8.397776093870759
High,1.3189366477757247,1.0511007031185795,0.17185516652463395,1.2778933270843087,Clay,1.7689560554433015,8.380507123978791,87.3482483708906,5.299501782284891
High,1.2096327384927885,1.3268775823670018,0.27369170415166283,1.0449803841382308,Rock,2.7825907710781825,5.775575171688356,5.710736062065131,2.1624367739143935
Very High,0.9782605091269491,1.0700837765841567,0.046585268119054356,1.2891973796843723,Sand,2.451471831419641,7.59040074126859,39.161573035273804,5.294415279725426
Low,1.150372069514379,0.32791058928884265,0.378566628126847,0.8004301562178158,Clay,1.8749308369315667,7.533988346013286,16.665833439711008,5.595317754232745
Moderate,0.3128679943942885,0.6929216848388392,0.2916351033672596,0.33527589614581177,Rock,2.12708869844752,5.49672096986838,69.84007082245509,7.45032988571421
High,0.7416530324226055,1.6245524580519017,0.0941084583397106,1.2318009084511246,Clay,1.5162784915418253,4.656596399407576,11.466731482682352,2.2768415981027563
Low,0.5917071422882932,1.736694287581483,0.09492786768475375,0.9919429213655578,Sand,2.9639140594253037,6.341623082034288,66.8159680994442,3.7462727826586444
Low,0.23128713675982307,0.3608700621595834,0.09294007713476445,1.1869371609227184,Rock,2.268172558710871,5.801369183846414,29.331906208992827,3.703871945224207
Moderate,0.7805826793008936,1.9095348295575767,0.02944419138841506,0.674597927748433,Sand,0.8964630754925859,8.14039987326169,20.692764559985246,9.598451997837532
High,1.3890355104796897,0.7247629739123577,0.2943114262364707,1.641673181477721,Sand,1.5185681926456194,8.101638848049054,93.69890322467356,4.495055107234517
High,0.15608276667097226,1.358396103588368,0.42033374061666556,1.0985287765784808,Rock,2.1712917542699266,6.556607784866815,2.8339330978496307,7.57543027625165
Low,0.5080452788913115,1.5284677773176942,0.009731608779706913,0.2451842232944855,Rock,0.9239332111583276,7.229305013954486,44.33994991706732,7.533032675606947
Low,0.3905573106879848,1.6426978458119785,0.025453317840665502,0.8646667841975287,Rock,0.8525452209021142,7.219167821941163,3.141072253717584,2.7288874295520897
Moderate,0.4334053151319748,1.8969244342292673,0.28681236806678595,1.3858052930641784,Soft Soil,1.7900533269611658,8.222211667924306,48.87571176232857,5.761509924780148
Moderate,1.3718083726311254,0.6945471412547629,0.40992834700764014,1.4500287549448632,Rock,1.5319183953238742,6.412510863554389,50.603690401647405,8.953598643854615
