Seismic Zone,PGA (m/s²),PGV (m/s),PGD (m),Spectral Acceleration (g),Soil Type,Site Amplification Factor,Historical Earthquake Magnitude (Mw),Fault Distance (km),Seismic Wave Frequency (Hz)
High,0.5670797541716119,0.3409656428457957,0.4700222620699687,1.534256900430462,Clay,2.468446497497819,6.291392302063039,3.34791967027327,3.66858398857763
High,1.208181483627918,0.8443106560683284,0.17217032958242218,0.43140270724927166,Sand,2.133230430259379,4.619011061689504,8.899123239766038,4.361176890070872
Very High,0.7318117582409568,0.4090555487004217,0.49407391390136307,1.5056753401947156,Rock,2.0546875172183086,6.010007407634957,42.378984815066175,4.154232954759268
Very High,0.35681907496480836,1.495294785335215,0.24312999742691274,1.0565142189346621,Sand,0.9178684311362975,8.892090708860223,94.3483584277839,3.809837123104023
Very High,1.296963627386064,0.496778777439721,0.09040279522678529,1.3957187690299397,Clay,1.1090978215501381,8.4310000930219,72.42966620449894,9.26274028430426
Low,1.3355838274812861,0.21127408004061432,0.44567890580496117,1.3131325226479016,Rock,2.1696086716688505,5.98220130165398,9.724530380555217,8.30640592281082
Moderate,0.7528336585962381,1.1494956618527452,0.23071733119427862,0.4527695421542943,Sand,1.257212451209439,7.145079322798675,84.7854832653065,1.1790998996434634
Very High,0.20597961823370245,1.230936492166863,0.3551260004087577,1.0669816519375839,Soft Soil,1.9089541754465336,8.312835354909723,73.49777629020991,1.1704211895232508
Moderate,0.6429565258837037,1.7566348164329604,0.49187208002136673,1.575129359768657,Rock,1.9987397092646657,6.485734515375309,61.483706044562666,4.3359081970446125
Moderate,1.2249527232476447,1.1962650635935956,0.026037499809667027,0.8345976025632799,Sand,1.4237158185960668,4.5808103868756795,82.20900310030855,1.0767080296548097
High,1.3624836399647202,0.7564136220745469,0.049250585333996004,1.7432043093796386,Clay,2.8865353421912845,4.83529707818388,41.006874926552754,6.229021643184084
Low,0.3848618394966341,1.625722574900009,0.36050791398991533,0.8687656701729206,Clay,2.6534210350382654,6.79676724606918,22.92860403453142,1.5225469118911659
Very High,0.19376305683538014,1.1265298970561,0.14163067664444054,0.34273558233540397,Rock,2.389221716792157,8.862477190541453,51.690315521767175,5.2714953132713305
High,1.3282906343859742,0.25063254079926434,0.09296639707809944,0.7620389561320444,Sand,0.9715865061007001,7.619442939984905,55.335333803753905,0.17147747533680574
High,0.6451669145704253,1.1751160645951686,0.02064157803004502,1.7178940908639133,Rock,1.0334860424798429,4.819122861473563,54.294310828981295,3.2343038492852028
Very High,0.8584653499745885,1.8252352363011586,0.011901509281114702,0.6435254438777521,Rock,1.8841189609029028,5.3521239410633825,56.942305356530426,6.804188164359289
Moderate,1.4552921368710625,0.852993988446619,0.38746831595677567,1.575766871774007,Sand,1.1535693682201686,7.970954144475825,94.9217869056789,4.891985508255699
High,0.193190619079912,0.6630190236096201,0.06808228025740545,1.5981261588592126,Sand,2.952184019764843,8.286478919803102,90.3223166865269,9.784867911389982
Moderate,1.0076452104329336,0.37259196833423813,0.2343925873696043,0.6953170913643337,Soft Soil,1.1487445148603008,7.279625637848659,87.695986619335,8.753627581055486
Low,0.2037475916048139,0.3877464916771789,0.30334251077456204,0.2415380186860746,Sand,1.8724292380207428,7.399904263334175,80.34026427995408,3.654800712527197
Moderate,0.6256564998531005,0.9222658202494558,0.21474754848385427,1.331748445569991,Clay,1.601066325051312,4.627518526725231,94.39938261926325,0.5503167605755186
Low,1.2253403632708255,1.2317916659069061,0.014526219515780321,0.6295709083237762,Rock,2.2066501271990155,8.228386168116788,10.750969526260922,8.471700371138686
Moderate,0.7068611258578881,0.2531692698222433,0.3919672497913665,1.430970144237873,Rock,1.0838800995567348,8.047238436768733,27.24720288312821,9.121219672115247
High,1.4960552954641306,1.885180319147815,0.00624609904628509,0.8525132420427363,Clay,1.74669614169326,5.665658148465062,50.0105386198039,8.224211194848465
High,0.8826829989252429,1.5347538731458723,0.3811830572943645,0.9249534619824566,Sand,1.4043510721757162,7.6890452398447815,84.80691481921711,1.3667044151056722
Low,0.5496270136903348,1.214585444738959,0.44675894240027325,1.4224459914725127,Clay,2.7530533542777142,5.466845728912491,51.011405440750515,9.979359830681648
Very High,0.4081558562666544,1.6740334747840826,0.21698712060752898,0.7500176628047673,Clay,0.8892885666963293,4.681485724731808,75.05543919481728,2.659983793372461
Low,0.5907287480006265,0.2523548379430153,0.26823569407580133,0.8533164870489547,Soft Soil,2.8102004868142103,5.405114441656698,14.757030619642705,7.269628636802864
Low,0.6215465832633711,1.0059938676929363,0.23901471291620924,0.7395237969083576,Clay,2.632587104816601,5.303829945394348,25.988967484679456,9.089545275723644
Moderate,0.19619914881354536,1.2971769410371605,0.19521510069309597,0.7244788759713758,Rock,1.4546555761697941,6.019865985306812,73.44583340872957,2.4333024318740235
Moderate,0.6174038791974824,1.6744405216247495,0.44382484314980974,0.9941091807324809,Clay,2.53643944028963,6.383022737289561,17.30866687988468,9.091759691302954
Low,0.7499339276349148,1.5885921640936087,0.4470728218243253,1.4749590556519563,Rock,0.8686698327452447,6.788425011739686,35.78423753083775,3.163867634029183
High,1.1118328531343264,0.6264315744554593,0.16857236595612574,0.7150061302683619,Rock,2.9271042106454663,6.645392439787477,27.22175952354357,9.766490901602156
Moderate,1.0194212786102512,1.887672322162488,0.3079198072533343,0.9912330249141523,Rock,1.9585088736975367,5.718035726843802,35.63630772802537,2.884474201766699
Very High,1.092271917320816,0.33625709871865367,0.4635268735107862,1.2402364532524215,Sand,1.4672182573439798,4.631268008583335,71.12408085871905,9.539014665102568
Moderate,0.11170915462759995,1.762753875380189,0.4810671909717344,0.5580470587162135,Soft Soil,1.5976830677082896,7.222957300067178,37.416870933137304,0.6300920438374815
Moderate,0.4047343594127505,1.9447864742487753,0.25497056117060174,0.5717887683340673,Rock,0.9460917776130943,6.280851734313095,55.97106893818608,7.121792915531149
Very High,1.026358003759799,0.4365916941229886,0.22695957783687906,1.6868023159398733,Rock,2.976568930892486,5.844024708243974,10.893255828386556,5.367900224986337
Low,0.7775851154516459,1.471925521987192,0.14006846364833436,1.3300087746628506,Sand,0.8864422793315234,8.401234692737304,80.69675163022815,4.830983063515033
Very High,0.10743886593568433,0.17654248567819708,0.47947706472201457,1.0812173495796251,Rock,2.24079567092529,7.860344885091719,37.61897393916436,2.312593711132816
Low,1.2262924994045512,0.8703033677643943,0.07226433793196081,1.2011240925150404,Clay,1.7740190409542085,8.35994496767599,65.2048817443009,7.08539831878727
Low,1.1819334026064723,1.0809382684755806,0.29033495844781476,0.14980905327581123,Clay,2.8876156800151733,6.727422576206075,72.81357056452143,1.9890139653184404
Low,0.8677868281909876,1.2032259292283047,0.1419925834918008,1.1507750414548847,Soft Soil,1.3411994286749493,5.089190634570499,21.75643128905834,5.573133780249205
Very High,0.19304865608678096,1.8782807716722631,0.1402251368835505,0.9661650844811432,Rock,1.970591012663625,7.632996462545726,88.58282351038164,2.6071290940984833
Low,1.1731210693456184,1.3772763058589699,0.20307932510071805,1.0277744556250406,Sand,1.8611836588820567,5.427332009717288,62.00620090908834,9.560651659835425
High,0.9171990228239094,1.0144281073165502,0.4993976749720116,0.711020505612389,Clay,2.346306176910223,6.485533510912726,43.44378903339666,0.383448818972963
Very High,1.194743968021143,1.6383825689051896,0.028428187113071213,0.2385056261120012,Sand,0.9496225102953252,4.792503550269998,19.051183174243736,2.077309973101242
High,1.1524457893541766,1.906012359813377,0.2896923672835622,0.4286766971404887,Sand,1.2263360860513808,8.21388781090342,94.28779285221947,2.4988750032357325
Low,1.224202900740972,0.1419256824963526,0.042203506859603314,1.716266012461542,Clay,1.2720426042042696,5.066732884713753,75.75175220903088,4.199271475101383
Moderate,0.8252112929664747,1.9667904172864734,0.07810589416526896,0.7947892558605877,Sand,2.4239316606517174,8.563938781721895,21.59443171059164,2.4040293945135303
Low,0.296454325470921,0.2636510642209926,0.22034190794467645,0.8933613649124691,Clay,1.2161051319188283,8.389037710177007,34.433366697698226,4.964355993660974
High,1.0396204627315642,1.6473348806106465,0.25571960554187423,0.1896066427508463,Sand,2.061681880560149,6.590622439976608,81.15775155071925,8.737408680259536
High,0.9686632990727587,0.6326360298476836,0.13013741177389748,0.163862590224767,Clay,1.273536405102098,7.849656919367957,69.87208865831856,7.149427871950791
Very High,1.1391544620787222,0.35114134973235633,0.15891210830633368,1.3192084599794882,Rock,2.6955748901847527,7.28750283218169,76.81264497885671,5.841623607297599
Moderate,0.3378334084710294,0.9357257154562862,0.044396543107710594,1.0147609290058892,Soft Soil,2.872807999877205,8.11384039051985,44.67890911908031,0.9811314620285285
Very High,0.37296527986040484,1.3235175009504658,0.152306672138281,0.9648001731676533,Clay,1.940684544872929,6.443122953536604,71.93115000157452,6.970521873053828
High,1.3465733241070599,0.8238085055446025,0.4833126612508915,0.5133117017185368,Clay,1.5750795452601922,8.036138179099575,39.26287856352746,1.7475014146783048
Low,1.1499689178328991,0.203674275737128,0.4724089834545684,1.3660762437708678,Soft Soil,1.3149271050384983,6.581055676793166,21.915028776881446,7.88503712102081
Moderate,1.3715198841804521,1.2389761653515616,0.16810426677835552,0.38600218448443624,Clay,0.9095182033506963,8.734346045292572,63.635026449294635,2.5755619092505166
Low,1.162201449629489,1.814566224610282,0.28585611420310203,0.42288906422373407,Clay,1.39070016763449,6.688674453713164,97.62537863428062,4.228782410376919
Low,0.9360174283864225,0.8281091952997781,0.4548881001643612,0.8832106912920683,Sand,2.2393187158796994,6.581786723701783,31.749496168137632,3.5696550029474867
Moderate,1.0157858318390232,0.5110322774985714,0.00408572749780744,0.5866757655902995,Soft Soil,1.973957248880264,8.032823377035808,46.635989629041426,8.602257755281082
Very High,1.344779093516014,0.9408969572723492,0.40553110159845834,0.5206870680963488,Rock,2.8768908122180408,8.197099612923772,67.7261357359155,1.3527901412627408
Low,0.9103294563167167,0.19188915099268367,0.47423640684167057,1.196903995740664,Clay,1.6718099774817414,6.995201014445268,54.6091219301263,5.699884335609407
High,0.9853478540597422,1.658926410512522,0.04657154143244498,1.2066519668715256,Soft Soil,2.3264993531224682,5.309090160727839,84.49935177519588,1.5064099334863161
Low,0.31906740240504083,1.6700475408053548,0.0815623953304276,1.5016790186598796,Sand,1.8765100444452671,6.604912039309108,76.41252794048208,7.077478777708648
Moderate,0.7634897081625437,1.217200880516294,0.48041240508290634,0.8101045638540589,Rock,1.9276676750332657,8.856326263093553,6.771423182373347,9.060273465165363
Moderate,1.1029559567413385,0.7708954889829399,0.2692325316765328,0.22424465474445543,Soft Soil,1.3891034921290586,7.888437868676333,99.84370215845362,4.402615773285809
Moderate,0.47931977764291156,1.6195883924469885,0.008084120601390127,0.5652328543664781,Rock,1.8008917090523995,8.150231717456094,75.48784291822726,4.932113376623261
Very High,0.3831558527343488,1.1539053470978977,0.12955836738300106,1.7660092874345887,Rock,1.835726993427956,4.6477147446865805,86.52642831311721,9.281486081179347
Low,0.5393575315141818,1.6692713862450308,0.22552189346016094,1.1136395778955936,Rock,2.354613547847655,6.60536758185372,65.4685734974393,5.257814747628635
Very High,0.43810087918996676,1.2997717059077392,0.3467615466013591,1.3065530441617346,Clay,2.869407998209451,7.409795101458999,85.77222767662947,4.927224536690653
Very High,0.4008776918509541,1.590370399104315,0.366847028690263,0.11250831036320472,Clay,1.5245068104615096,8.235147076326335,12.125914517942231,5.825458116772611
Moderate,0.6947911800153217,1.237269687113744,0.4977153349498026,0.9809497447102854,Sand,0.8928410308788566,4.721731441122472,35.426045720372244,6.923374389993224
Moderate,1.3709739194369477,0.8868680296097657,0.14446808849249576,0.1637987178040653,Sand,1.8918492761014074,8.335974985388429,87.76567341684478,1.158145413361611
Very High,0.8098835054342055,1.9200971338596613,0.26957183083236913,1.0676913605554617,Soft Soil,1.997814930728171,6.967804215338603,20.963865915422332,8.228994224641008
Low,0.3630885331414522,1.128116267269805,0.2671284503819429,1.6653104443813282,Sand,1.1705692124902136,5.38791286759227,8.74596775942225,4.411499771787266
High,0.2077603371332237,1.249670085227023,0.2034169844641715,1.7463125218506934,Rock,2.473022133807347,5.92764847402365,79.02377505457667,0.8162502479851068
Very High,1.0746186031930953,0.5189265148880235,0.08541178502736768,1.0189395481611712,Rock,2.966844038571282,5.768682982882023,83.71312940868633,7.88320842506231
Low,0.6359182702109429,1.2887364999118254,0.48875082502873746,0.8789481689287671,Clay,2.8807043774186143,6.888865654298141,17.10256960080016,3.831804719694094
Moderate,1.250563325219503,1.1860545340175934,0.42680527614662644,1.7065290602224399,Rock,1.2336332854120349,4.732585559600093,85.58025229548883,1.093638201441034
Moderate,1.0233150760970782,0.4511929560993474,0.24966818111882436,1.2451367143943817,Soft Soil,2.7257991277816735,5.213412713249656,68.99001176411979,6.37441249147818
Low,1.2147380307579159,0.21321548497097306,0.3020194659193309,0.21032877521529608,Rock,2.3498860001057063,8.15711869519102,52.488185638441806,8.813300398993052
High,0.4807244551858282,1.2482827074580651,0.11440326572627149,0.8917334820347458,Rock,1.7984624403752056,5.0967179583606494,83.19476908535711,8.888759743198465
Moderate,1.0693024914454814,1.551015311765609,0.2723497481254817,0.5084165313893166,Soft Soil,1.989344187514404,5.550283212561571,42.50567568257761,9.580868400608834
Moderate,0.4696867785712062,1.0944626047518156,0.34779009642761644,0.8986673464627586,Sand,2.669120384961408,6.5401677252187085,20.205401666116323,8.690284051690211
Moderate,1.4146958712304083,0.5308679881073268,0.2580683471649078,0.874291472410815,Sand,1.856296867204421,6.827043996509987,29.200414984450752,0.12119510152020471
Low,0.990923994146724,1.3663917557167664,0.4951523001218857,1.0896461647850615,Soft Soil,1.6210562120312793,7.936247158263714,51.011237811038164,3.8643875474925635
Very High,0.554316520245479,0.2522008805582443,0.3060594864676154,0.7065098335937271,Clay,1.885144484657169,6.512995919997845,53.601748474644396,8.20357154106448
Moderate,0.4773166072091817,0.9394840391237137,0.18611588258349235,0.37925976407507767,Rock,2.0740855688771083,8.054390794659925,80.75250181768213,3.725904759384895
Very High,0.3672972191003009,0.41039684095699835,0.38630386178030324,0.9563230388029256,Soft Soil,1.2159708383123675,7.2825583817045585,79.34391964158111,6.055330213159091
High,1.072497342451219,0.4504721970137784,0.08606079327923938,1.5113449033877955,Rock,2.7819970065873796,5.008948827407201,58.55528916325291,6.102537779007867
Moderate,0.4062018581970982,0.48435850340058695,0.192873391039427,1.228820787714924,Clay,2.283211287425151,5.203491472767774,78.29776285318216,3.7137505099843486
Moderate,0.9334245722984846,0.834743408383558,0.17413251623841533,0.6752253720728669,Rock,2.1931916181424755,6.466651764523968,19.985572371073427,9.054291880084747
High,0.4704890376955002,0.19718539067875548,0.21647174045878084,1.6903891386900574,Soft Soil,1.018891697597404,6.286002268900678,5.9563881822361395,5.081960619322564
Moderate,1.026756522711416,0.8558075377652865,0.3911081331384344,1.6507528711236097,Rock,2.129182663979702,7.845949213367826,87.48974844083531,4.701363638781258
Very High,1.2409156199567548,1.0722441495179316,0.24260234304954031,0.4558922789529679,Sand,1.066113456924683,7.113317129088083,8.479894882514188,9.975386082052768
Low,1.1892353404025144,1.0182591414360178,0.3972132106827154,0.16700989470461708,Clay,0.973134885429878,6.246598864510122,25.422154544655733,4.985653604318904
Very High,1.1651918633030944,0.827289790765777,0.28866796266679307,1.3602248041962959,Clay,1.9600839704132653,5.268421275526736,69.83657601281408,1.8661426940929526
Low,0.3628113679691529,1.6943785553344297,0.17169264789412012,1.5069374442935606,Clay,1.6861281749022892,5.520766960464728,41.535345825103605,5.179387286348036
Low,0.2237389257783262,0.37612071559895777,0.40517939309805273,1.745369762117304,Soft Soil,2.0953825943436915,7.089754583110766,87.75508302163537,8.158765681647306
Very High,1.0785283598823399,1.0608238131846106,0.1199065456059927,1.6127218699501282,Clay,0.996288769725925,6.405474622049066,30.499999671564684,7.790917236292986
Very High,0.6156860993120918,0.21787869221745315,0.11296710692009795,1.1209091059509053,Sand,1.7481627382639686,6.817173789873024,2.1752633202665703,7.9069594745738625
Very High,0.7052847169646862,0.23519578986802853,0.25274695910336303,1.0010889766610473,Soft Soil,1.1845307730993477,5.268048458860052,30.764908415513666,7.109435461579326
Very High,0.1436087299107475,1.190345114386483,0.13116377373508237,0.1473297871463967,Sand,2.9716201890330565,7.483078135550546,58.229429869298336,2.6167565077602135
High,0.4634070289850688,1.1754350072868598,0.005534430440656945,0.5193159596361223,Rock,2.034530467357384,8.336424333851852,38.21789916492604,8.634632449818291
Moderate,0.14714696542424963,1.7682636744044682,0.324500466122102,0.8813450779459749,Rock,2.3123610940699084,5.660727780541053,53.952402820116774,8.945090307225025
Low,1.3308600816417466,1.159959983754139,0.2560358169147266,1.1684566301420654,Rock,1.5159202175017374,6.71181401624322,87.78321376466685,2.022111696523636
Very High,0.44075535650594266,1.9236029387692153,0.22331338943208742,1.0473281166412982,Rock,1.0084256125145572,8.889872980594058,91.33602036880649,1.3915108018587998
Very High,0.8802720374022112,0.19252021195986657,0.48351728879453937,1.362481182458874,Sand,2.9469158981237804,5.999587832478275,27.331432400757098,9.75848918903221
Very High,0.15457104892558257,0.286214601083408,0.2860283927974939,0.5756037825079694,Soft Soil,1.429769877843003,7.1777085521569255,46.75190685372017,8.696407240138642
High,1.0335863478279212,0.18372513698372467,0.43185235731690286,1.0604194330092045,Soft Soil,1.7323780073818633,4.9058806509011,55.36525750890367,8.943037857378473
Very High,0.5522382840557314,0.452026015633726,0.07058566786637492,0.2498418137643466,Clay,2.2297006277456655,7.227067511157495,94.96213323193646,8.875126207781513
Very High,1.3570868617407321,1.1284132107891884,0.28503402510158443,0.8032313900914518,Sand,0.8543340549094449,4.90334297987078,99.86311459727408,5.46269955793391
Very High,1.3433654645076503,1.3265871447121131,0.43412183373872054,1.3752734160228217,Rock,2.5825700871380315,8.8165594589572,24.305317635311138,6.499377192991417
Moderate,0.5554068657064468,0.18661180010247072,0.2919697728826691,1.2787814508293749,Sand,1.9804720180629647,7.720481934325401,72.97100726323573,5.499092236123052
High,1.361345253966655,1.8973446907066387,0.35928907488537376,1.7840926531927044,Clay,1.4120778115514088,8.04671904661068,38.42507516108632,0.6069428569842578
Very High,1.4946207428982903,1.700114215635724,0.1866497403382915,0.5724149141791852,Clay,0.9355375676434324,7.668469623472365,1.8027114917351095,7.480480544992449
Low,1.2555819297735273,0.6635637160984769,0.04713230900149624,0.9469218085957645,Sand,1.1574965140437712,7.153780662344095,1.9159997211543331,5.102787130025215
Low,1.2828198868573206,0.24665630743028913,0.22949224726840864,0.6602017034157944,Sand,2.7690744894775614,6.524607514884774,46.59603474866332,6.512319840423275
Low,0.4486122305527258,0.4227854391162088,0.1978452160285899,0.849025293900597,Sand,2.30925329265896,8.36268020892478,49.34515638742913,5.076134069257799
