Seismic Zone,PGA (m/s²),PGV (m/s),PGD (m),Spectral Acceleration (g),Soil Type,Site Amplification Factor,Historical Earthquake Magnitude (Mw),Fault Distance (km),Seismic Wave Frequency (Hz)
Very High,1.0282660685247913,0.8507950651973796,0.4583280864066416,0.24316211900106718,Clay,1.180066100218392,5.601599428507766,48.806549223261264,9.390835302421543
Low,1.138654857742201,1.4839046232453275,0.164591261226167,1.7737790238393922,Clay,1.6346043160492107,7.562623918134452,51.89398886630804,1.312939511117229
High,1.2877955307267346,0.7570315869798074,0.18666904522648506,1.2328924179813623,Clay,2.8038352993774582,5.045692020116115,83.08899621504186,2.1990757199720665
Moderate,0.6916808758190527,1.3750769984633546,0.3801520055557658,0.5851869163878182,Soft Soil,2.1537652493828636,5.011928814620473,44.93457434895123,0.39246548925378344
Low,0.5241032678966009,1.6303170817873602,0.17007291772898087,1.0958742701659154,Sand,1.7062824069469802,6.3493227361615645,57.514449528886956,4.3959589713506
Low,0.5554131876322436,1.8988368649152574,0.4760791608728624,0.2861200223172897,Sand,2.8557037480566727,7.415266673737019,53.18002291283237,2.850545705690078
Low,1.0976698663379179,0.8604033241143767,0.3692259567304014,1.741922336972892,Sand,0.9066213114468091,7.704323965115687,4.782075591981714,8.712068745514177
High,1.2434912531078905,1.5882661676164906,0.29911719204413656,0.3971344794017221,Soft Soil,1.262607591384095,5.303028033442686,61.90627476309449,6.088914050657775
Moderate,0.35425955485924376,0.6052640562010256,0.4405666851118315,1.2016515406938642,Clay,2.04495493122387,4.858146663174191,82.97628529165097,6.179498305959447
Low,0.6193174114208713,1.981631377207932,0.025753348266391893,0.5172725863161818,Sand,2.1542157710249943,8.731786652754948,16.59255425950458,5.365915899124894
Very High,1.36271627544881,0.14896223765226718,0.12927428340241517,1.3198543505025109,Soft Soil,0.8870265144377489,5.672998721529458,59.83884165873298,1.0093183385690898
Low,1.229370927572635,1.2467047323521299,0.23305313077623407,1.4205963243084778,Sand,1.686685267395691,8.340059239239258,59.76744390019502,4.505684968881017
Low,1.4788017638674662,1.3530613651375216,0.11426229119628899,1.2448135391494355,Rock,2.22813872262792,8.385711527082682,17.254311441579514,9.995101378114313
High,1.155947563554913,1.407286558440845,0.3722086884637738,1.1446490824338273,Sand,2.3357552020874834,7.9763516629314495,13.222893799342867,8.368769979375546
High,0.6504732814390911,0.32873639969926916,0.45968480749580887,1.61719745971842,Sand,2.203907785535793,5.259751229936565,98.025142354672,8.945244636254447
Moderate,0.9268929675924928,1.8832065885989477,0.21246128984553078,0.23366540868258867,Clay,1.505239093594034,8.1981065666439,39.978197795650715,8.249940956540344
Very High,1.0254199559462485,0.44424823019515736,0.17172416745583557,0.6625551018263318,Soft Soil,1.005744271915401,7.96162751658714,23.5147511436294,1.1201127649667286
High,0.2098381428439735,1.283231466155698,0.4808138153366456,0.5220887153724382,Clay,1.7396473821225351,7.185253455477977,17.96112990098312,2.3517377152415166
Low,0.8622957427454111,0.5230845503338614,0.22298136398094287,1.7796237355112168,Clay,1.083259762209722,6.017409158260287,67.09256964474027,0.13090434842845533
Moderate,1.0930491598616534,0.6837111923404147,0.24503515182419233,0.7619626254336849,Clay,2.884772048745468,5.681288719199449,61.3350844354006,3.1047502362933037
Low,0.33424982560148453,1.1382712292834363,0.17647328629861078,1.345441588708678,Clay,1.8453759052497822,5.048501454361615,64.71166017575433,1.1752132832302766
Low,1.19288440439578,0.8926674952726953,0.4548646880330571,1.264032778597708,Clay,1.497970183585109,6.793906801053922,9.712596723633773,4.780654118485671
High,0.9172818927197562,0.404428641855362,0.28490878615764353,0.46053810371154213,Sand,2.48586895646158,7.13367393979431,89.45992376634526,6.803562136881629
Moderate,1.4331104999766324,0.42477916459961174,0.3813251190036407,0.5062960563596373,Clay,1.8954869036809807,6.117025457321042,39.53737328409578,8.757602420876962
Very High,0.15939121748964838,0.8944750975093193,0.4060915524570923,0.578183758040158,Clay,1.4820748528273904,6.639115804563908,32.023571236605434,7.517249934399892
Very High,0.4714565925776537,1.5388376587234514,0.17158267191671184,0.7989163730409446,Soft Soil,2.586329033259764,6.1358150581617,46.77378327752618,9.391997398207202
High,0.9421754310197537,1.8061328290107983,0.21741347132886965,0.4983526116058955,Rock,2.7077347322024687,7.384527257943155,39.616540509015195,0.633593074898509
High,0.5151838770883029,0.25984255829282743,0.42438741542872604,0.13340752066964126,Sand,2.2806179658350896,8.555666435084536,86.49412331077544,0.22058037062376026
Moderate,1.1001938296997391,0.846897424362862,0.18226442048622932,1.5949681965722324,Sand,0.903321729296868,5.237641179211252,92.99683654459132,6.647247326978505
Very High,1.1626073955307035,0.29046657107346563,0.3971736315924738,1.741536713347503,Sand,2.0459103363663704,6.216339644564055,31.041868428511016,2.964588861200238
Very High,0.24352234969306422,0.13152571320193598,0.4705551689646441,0.6806696579536655,Clay,2.4792488063940197,5.133908717778876,86.52964493853553,2.609660059447154
Very High,0.8193962498894748,1.3572654970235176,0.3119819761609355,0.6754616950233038,Clay,1.1003066265838808,7.312246966835244,78.37078982377365,3.3757821681685636
Low,0.8124467778274782,1.2446539397365168,0.3710720164384926,0.11205608171643068,Clay,1.3030756530461276,7.779917292698681,93.14995956213141,2.7709809731344053
Very High,0.6169930783017574,0.40973631624828377,0.4027435587085263,1.256426170161636,Soft Soil,2.7414892311499006,8.693607296688551,25.329280906402897,5.163220422385714
Low,1.406094807597541,0.5442443828768218,0.4226747847994246,1.5032478227726689,Rock,0.844267788076763,5.754923668174342,58.11895586197693,4.457469627518911
Moderate,1.2585088478225097,0.14504473192458492,0.19813161559054118,0.3492341106120054,Clay,2.4559997032171474,8.775950426394436,28.179913889304018,5.173042658628898
Low,1.0760931346734914,1.686399690819367,0.026580466128823088,0.3714327939241563,Rock,1.8423012435317305,4.784682023193037,82.58535455795305,6.759864753854318
Moderate,1.1000572900289967,1.9519121324922477,0.201536259347133,1.4431415249514443,Soft Soil,1.7828987494471353,7.213562385140647,1.5270948665353616,3.9325920388143687
Very High,0.7464026013383667,0.3573731199099125,0.3372043586622608,1.147694272202046,Sand,0.8156123714887519,4.757097237044984,56.917097125753216,2.5879461027073525
Very High,1.3893923295352062,0.5398029061540665,0.2257248425046156,0.17626294796711894,Clay,2.6026761081262846,8.521983844928751,34.58113969591988,1.7453853144065803
Moderate,1.0724335981545996,1.7499780954991746,0.37473261227933885,1.1583298837858789,Rock,1.5916147814004464,6.884140756815244,32.945687000704204,3.559793783372993
High,1.1205734863181431,1.8602812161167512,0.17913423230486328,0.6251601288344023,Rock,1.9896843888611946,7.512067578432582,64.84572606262678,7.443884104937103
Moderate,1.3063672653022833,0.8972920273329396,0.31773732641091074,0.7268327643004381,Clay,2.290061509938451,8.242082666597037,85.2969604820854,7.591378610103549
High,0.4837002250790674,0.19618269731124083,0.09402348262213332,1.4085434111046964,Sand,2.3457850681634147,5.17639780117786,61.3103437479393,6.702363328173682
Low,1.2298992654133842,0.17484448401635688,0.3749353488858335,1.4785898275434382,Sand,2.9031561294173596,4.673662028721602,85.46412488602553,2.4168789355380587
Low,0.37333684413908885,1.19050474553112,0.2733022884376999,0.7806062656277121,Sand,1.96894789712054,8.454965156607834,27.195114076221966,5.922053833961507
Low,0.5834787331428429,0.84650070689704,0.10282812988475369,1.7101599912108032,Soft Soil,1.6793830121437407,5.917199523565197,52.43068362173313,5.749827649610795
Very High,0.5698546359777797,0.15443961239754359,0.14666367557540583,0.7909866205185228,Rock,2.8981479782817576,5.080405085672243,45.60311736764053,4.894235361286282
Low,1.469935655744797,1.208179545393858,0.37455574558233434,1.412121259891187,Rock,2.2126425170561466,6.608075566891889,2.1528450508065253,5.544791965200256
High,1.2991521132470976,0.1214748195191427,0.24181801659509883,0.9225913497592404,Rock,1.4559307838084226,7.192377340632085,56.12440217093327,4.968727262974314
Low,1.0816378062263636,1.5960067204836186,0.10879968875614303,1.6258049550875429,Soft Soil,1.0782213398878566,4.6393677154012956,66.49090809047132,5.698018024133671
Moderate,1.117879466261546,0.6822223631364059,0.4836683239947785,1.6431941142053037,Rock,2.653619903223399,5.737030462156895,59.599526037487934,7.183508950749174
Moderate,0.8869019121635995,0.17649020571754098,0.35784738488862705,0.24860857338084255,Soft Soil,1.5967995261471337,4.6475994342460325,73.89170997955873,1.1853191245940535
Very High,1.4259269339519267,1.2178692198679912,0.4786102814373583,1.6920386632273838,Sand,2.2530333870017487,6.391509251379746,57.56261331685464,7.521294946275335
Moderate,0.7947622540353061,0.8556003874228039,0.21412541763481127,1.5034092305847067,Clay,1.835796122604976,8.5279501307981,7.608275230224935,1.4452728862631827
High,0.6327247938178523,1.950220785378584,0.2380750700051685,1.4452282143315338,Rock,1.2376455155490844,8.921935851721061,12.528106884386432,0.7596171842627095
Low,0.32824947170422736,1.1339774587570342,0.44907965287632456,0.4415492774653882,Rock,2.1237105389650233,7.366713990766324,60.05098317685129,9.76318889359253
Very High,1.2006879131654813,0.6229544439703157,0.26299962078244693,1.4687026548829305,Sand,0.9335027516915011,5.227369622030663,28.222940005390377,9.57421851181737
Low,1.128221504905828,1.447933842804552,0.3539321770409279,1.5452256489645626,Clay,1.7093534117166231,8.576322254996876,8.884867774441819,0.6983217949115841
Low,0.6380970539337888,0.6158348048311515,0.12683426587026944,0.5915555685720566,Soft Soil,2.0025528672600763,6.823115204400272,43.53067160140613,4.488209070602125
High,0.1352707795429211,1.8180622536743738,0.22391650788261763,1.7188421332159505,Clay,1.759303343060874,5.191871904463131,55.87793721028188,1.94382488916777
Moderate,1.274596258805215,0.8119717439640152,0.06260148303936719,0.18476224887857923,Sand,2.44707878555218,8.647770012532476,33.54585284661105,4.904914481630739
Moderate,0.11598517683570309,1.14475026927479,0.10378403790260388,0.35484573052013746,Sand,2.6214348999996875,7.908610728253963,72.32293652035202,8.318754705695914
Low,1.0851796914806713,0.19608889726603485,0.0014707642185479125,1.0138879346875744,Clay,2.496734762872992,7.792673727254182,64.73329020202323,9.511056569954613
Very High,1.45835995361648,0.9096303521092384,0.020593260772681456,1.0788472009079264,Soft Soil,0.8853884851859647,7.691313167074821,33.949017748075526,6.37910126917022
Moderate,0.7127258594074848,1.6814907253558904,0.48866462776528774,1.1967551416115358,Soft Soil,1.227083294981139,5.401529194933991,75.7323803619475,3.603666105396989
Very High,0.4289627669943339,1.6307327301903496,0.12193449387324438,0.12884751983629297,Rock,1.9805365203803036,5.449530112683867,65.22080921077051,6.072923099881524
Moderate,1.0868194140607343,0.5262052618216999,0.331992044042497,1.7326235168576216,Soft Soil,2.856608488976363,7.597318492922648,64.10709249307232,3.1888129304736585
Very High,1.2439793988218193,0.529550234920069,0.41971074970100614,0.17579975764804479,Clay,2.6369049051146574,5.4887523754967855,55.78934237791974,9.107254044237397
High,0.8650024425089862,1.65288009320515,0.27577956915904556,0.34320531962978407,Sand,2.6535759183739636,6.47402263561372,2.1275771407667268,8.716964584747785
Very High,1.4538493853586048,1.8677569983217184,0.07741910554189414,0.12382467979429687,Rock,1.467058026271285,8.019008215172736,69.95421116421203,5.6264943277686434
High,0.17233621032114554,0.28118575041870675,0.364330102230747,1.063659336599961,Rock,1.7447853735731458,8.027786331440284,38.22813731980649,3.3155092622655697
High,0.8067138376263393,0.955111414909828,0.30052545363969196,1.684853702665653,Sand,1.8355530840950625,6.539677976366368,94.3183613057069,3.004557788271486
Very High,1.1058355262515702,0.741163130032035,0.3658940440843402,1.2321101823367893,Soft Soil,1.146217483369803,8.064854722238604,81.98049233664332,0.43083814758008865
High,1.3076966596088506,1.7543080653691348,0.38510356480568647,1.4985176964167264,Sand,0.868349886537804,8.273798082891256,59.18175248359991,8.176626425150422
Low,0.35095785667090607,0.25869733789203564,0.4877297734746878,0.12257804587958615,Soft Soil,2.8831863788131376,7.446490880779171,25.966016200107674,4.558793809086179
High,1.220004874469154,0.5011392908602711,0.28720807673332827,1.0214260074155344,Sand,1.329567688459715,5.527916335387891,21.16802193448899,3.318815991162618
Moderate,0.8737899060059633,1.5296898414143392,0.1714789152326103,0.8812570617593871,Clay,1.327887588191989,5.733053011734964,34.698098930077364,4.7639925144777635
Very High,0.6551751547859485,0.1974583130643096,0.3245838138932183,0.9482455051753481,Soft Soil,0.983433918291271,5.916785199339309,48.18022641442183,8.205506105501055
Low,0.28440104001073097,1.0358172233571497,0.03515191391207044,0.22276241506981953,Clay,2.8427170542763127,5.025618484802784,30.31048549385576,1.3336806563044599
Very High,1.3114140624724775,0.9400033658914679,0.44880126184247154,1.2635401138178228,Rock,2.0754216528674982,5.729218291664753,51.97802004385579,8.590794283594091
Moderate,0.3201824914516015,0.7353622400786224,0.0605711246577602,0.9554747052596785,Sand,2.2674810856757786,5.442836509406394,17.371672125805407,8.985337467572705
Moderate,0.5337030028927389,0.8496873991059551,0.16459357610502331,1.4007530447641487,Rock,2.8054691519787154,6.54897937413871,97.79356846972449,9.472408358835493
Moderate,0.5060637447474116,1.1068871151674426,0.40805694493243433,0.9249940779049161,Rock,1.560364371581737,8.587968965425192,11.684530941534392,4.035131124984015
High,1.319979647867196,0.40659798093792787,0.2990588767870252,0.3539487815849345,Rock,2.167316084503785,4.970161425392812,93.26246982578283,2.2496899999729516
High,1.041784191892457,1.1867921687388263,0.1974241246184436,1.2020368219322974,Rock,0.8853588004035524,7.74120565776328,91.4442231288668,3.7990441028203152
Very High,1.2153539560679212,1.630321425669974,0.23724439402813569,0.3930568155787826,Sand,1.2108995621084846,7.592773519859074,53.010687700130305,3.3958297526908927
Very High,0.4506550583094986,1.5443057666013023,0.427419149207888,1.5830707577031855,Rock,2.6287407711978736,4.930893893985109,72.76611691177236,1.8439237337783148
Low,0.9748237394497984,0.39240981891816995,0.1706621886438862,1.1422976064177106,Sand,2.486890383944339,8.6515758220761,44.1687814992862,6.11194003400473
Low,0.9004443764012481,0.3835739925088004,0.4349551927212735,0.36724660204682225,Sand,1.5714139212057232,7.058124909705688,63.37342317670138,4.818579189035426
Very High,1.2659625275035795,0.6095312987153353,0.04497908105736906,1.7359746977180517,Clay,1.6289833811032675,6.136764845110579,34.71701780469075,8.670439824007635
High,1.3685218846737648,0.7860419800479707,0.38862242016710674,0.981221287670045,Soft Soil,1.973819753817875,7.90442362572888,30.81474295875909,0.4178848467723767
Moderate,0.11701948006834154,0.8760656046761168,0.42392626889431345,0.22392736818181352,Soft Soil,0.8005302103072961,5.658144562807353,58.24474883078186,6.47429248279575
Very High,1.0436278866823097,1.391424711983356,0.09172700876583204,1.1656159375056143,Sand,1.3307375392836613,7.620794266708442,50.31483774421405,7.653193897264455
Low,0.17257011876762063,0.20769282111508727,0.21574291965372802,0.5304381419217774,Clay,1.2581099789380719,4.678700434075113,58.37410054584813,7.618917034964239
High,0.8684021311082982,0.16587813802952614,0.08358438755716416,1.4662788681914143,Sand,1.3510624828494797,8.277336169241725,29.379397547415277,8.872132274245699
Very High,0.5026858206611494,0.8446300695934271,0.3535954603681147,1.490297525062524,Sand,2.572992853573571,6.516768811595933,37.32882534988253,7.317434054011991
Very High,0.5294872393309976,1.424611015062163,0.26813853626276674,1.7642105049529253,Sand,1.4152824844021752,7.365118114610738,9.305898102262022,9.285319610312193
High,0.5941419048332992,0.46752715161731684,0.3180263500074522,0.9531782027416562,Clay,1.2213469085103261,5.495570189130077,6.175360854948366,3.3933003382268256
Very High,0.9698094286694541,1.3188585143868783,0.09904699651114937,0.8734266955371531,Soft Soil,1.9093796137446695,7.546831706963015,26.09225583762861,5.081773225840276
High,0.5676699519362769,0.593673462086569,0.10666118516415735,1.380908529259017,Clay,2.7044190800200107,7.975081241519744,8.35043907372403,0.2393886665006177
Moderate,1.1257786708263926,1.783563606745681,0.02170716542944328,0.32520011578127517,Rock,1.3309693484424998,6.629459340979794,11.273696154839328,0.168880114302583
High,0.6663383398034175,1.8018108941065714,0.16171170006266913,1.029756373448311,Clay,0.9727797341441572,7.279771158278074,81.47991213399978,2.4772535424700473
High,0.19569448043394205,0.6648456881345203,0.2803125860055038,1.0286209202224466,Clay,1.5840904188692626,6.553466657200794,4.84849600465224,1.0979912516769441
High,1.19726377947775,0.536988132530157,0.42910952208466707,0.25210430877765827,Clay,2.4448340140429514,8.523411161660306,66.23533659953954,2.676092542563961
Very High,0.5000616544297883,0.8814775469258394,0.3337967962818817,0.8105729453617531,Clay,2.011519198328548,6.7404113123144365,27.98321713272465,1.8527286158311345
Very High,0.7058736314389676,0.5570100118422826,0.21826276537647596,1.5505841575642434,Soft Soil,2.5969454130635645,8.288139190629686,87.28302239010452,0.3823482459026176
High,1.0596214365106622,1.377529302254237,0.47660693708267476,1.5554611573909225,Rock,2.9111027247403145,8.106084262216118,49.014236173172456,9.10211104941989
Very High,0.5654386200081968,1.6695229006417425,0.3599033550873401,0.2687040303634577,Soft Soil,2.543857448853558,6.3472716960676046,31.252069473454746,0.18140900075002608
Low,0.17921991860540187,1.3788750487313124,0.46515243622841246,0.25422550067131244,Soft Soil,2.128366773456258,5.535380213358637,52.24625463325402,7.387213228937146
Low,0.623489465817939,1.666265849773764,0.26426639866281065,0.54658231090329,Clay,1.8853514937152371,6.327369596518969,38.81384388548162,1.6062640805032138
Very High,1.4222280157720248,0.8542851081942008,0.13019323312177666,1.587102306341789,Sand,0.8881519899661867,8.217978190988491,56.86580540231319,9.13107325779604
Very High,0.9984281562179814,0.3970022443468356,0.027360516495996273,0.3191343946249482,Sand,2.9655083533908906,5.524346411187265,12.338753964308475,8.93867980193987
High,1.0400708081340897,1.5021068000554252,0.3633163408904414,1.3239945644666586,Soft Soil,1.6436584696650938,6.859963556359872,99.70205977844256,6.573621349055648
Moderate,0.9851950150926957,0.7849015597689524,0.06153019600476153,0.2719815533422755,Soft Soil,1.1349020706171071,8.127435365823363,43.13003189197504,6.755118083025991
Very High,0.3785889945432115,1.3754145679353518,0.15208478900771163,1.1593343513713033,Clay,2.2667594818722048,6.090648638077704,35.4748333310295,0.15285750549991658
Low,0.6856674097431921,0.6142234897653547,0.2667029830340648,0.7053144085025461,Soft Soil,1.4254342360100107,7.389943366512139,71.31077498331022,9.85022850452466
High,1.1513157177086455,0.2543363061326781,0.2826438773020941,1.441153737041974,Clay,2.088712196048305,5.605342083219665,37.026041243037916,8.790542775400562
Very High,0.2419220565744228,1.9859054114267505,0.3006910152965809,0.4972737630031181,Sand,2.090889397258101,4.99175750415672,83.494156197847,8.961551634727911
Low,0.48899388652559717,0.39678286506813865,0.08396140984450062,1.1866431099629318,Sand,1.7806056059863122,8.074729012917853,45.9728017116821,6.626520916803632
Low,0.48684675185219506,1.977999888530614,0.19048896500600274,0.5006603087790044,Rock,2.6394609541990937,4.945358805339181,72.23628291327806,3.5133905936799117
