Seismic Zone,PGA (m/s²),PGV (m/s),PGD (m),Spectral Acceleration (g),Soil Type,Site Amplification Factor,Historical Earthquake Magnitude (Mw),Fault Distance (km),Seismic Wave Frequency (Hz)
Low,0.1896088852520693,1.7171863973093653,0.378469092906467,1.3296615167897374,Clay,1.8159742594364412,6.232314251869007,60.89005130162272,2.394723748404139
Moderate,1.2546405322858107,1.919500127917917,0.23760481499366076,0.331295598533793,Clay,1.491755032785092,6.310326051343434,66.28951575433385,9.023859418169408
High,0.5093363545770704,1.1749154061652496,0.11366898652316393,1.5213341313519777,Clay,2.0781308905895033,8.0248054159749,40.777573363003015,8.355774344564265
Very High,0.7214872363089289,1.077476522705799,0.3086943671044723,0.3631362592383903,Rock,2.405756058947915,8.832531635913295,90.98910829957155,5.5799557650361145
Low,0.13067866028501254,0.26160713242955813,0.021126592217087535,0.61199849789551,Rock,1.7040523909180683,5.069951427812373,64.15511846838689,6.199496924115639
Low,0.5214645089680382,1.1428583229309397,0.1637589568099985,0.5232607285743205,Rock,2.1842822246182427,6.392836065954687,77.14781708283516,4.795823148447881
Very High,0.8036837396821827,0.8219602500342498,0.23480994030097618,0.7329220675741812,Rock,2.3384884265416686,6.664237236379366,37.48768443374367,3.977498774500208
Low,0.17864650828641462,1.2535570336787962,0.07483120872059351,0.5329284020129351,Clay,2.3644679974336293,6.1934031762974895,96.04117620109342,9.163221124061481
Low,0.7875340211364311,0.8385800609654387,0.49234258431782896,0.9312165749453685,Clay,0.9143254158885966,6.134351056723013,82.22566772567319,1.3435657648509907
Moderate,1.3979548804017983,0.5565683345556968,0.10533958493021751,0.7925933983029652,Sand,2.691445172507147,4.735209004027184,85.54089783843982,4.242623218190657
Low,0.2475505053509273,0.28043402293391534,0.0660462118915895,1.777168134324855,Sand,1.8081572924831055,7.5849237925318045,18.047232475149674,3.511162889079966
High,1.170217019305706,0.6983450447189018,0.1025639020695613,0.19507479521798365,Rock,1.3773153797316717,6.462964877040204,27.82535757925073,5.031692130486369
High,0.6735394747263896,0.2836251851467293,0.3847615054467024,0.34170833985849774,Soft Soil,1.3318819164552997,5.37657211189767,29.27703336867413,4.630555557997233
Very High,1.0172432003340732,0.4361042065655695,0.21332732397664955,0.18980401964462423,Soft Soil,1.8626310482566912,8.172150760359308,27.820013101440246,5.237006363345706
Low,0.4643312371793211,1.9759387013011374,0.2831425539365165,1.163930031470039,Clay,2.7510293868317106,8.111523366682325,85.6854080483245,1.4851978745472416
Very High,0.3232891675579016,0.9437967581225754,0.011483569336194013,0.1926657716033233,Clay,1.6323646797018232,6.688762326400022,4.156594725650619,5.180100864981443
High,0.324647659979717,1.1105563563595315,0.018181222978083965,1.5219475535394096,Clay,2.449396642923795,5.843027975164922,8.533898909096656,2.499946257483388
Low,0.19868872390040251,1.7598752046007091,0.22346694936368106,0.9702956721592773,Sand,1.013001208171881,7.371417266084036,28.11757219236047,1.9248803549830935
Low,0.35990538686174023,1.9915809109323068,0.40851096635761014,0.9959129617886072,Sand,1.847324744732336,5.796684610998314,20.78742449029492,0.7418587659832931
Very High,1.0299071389845555,1.207157453754895,0.44273420047507506,1.0547106631107301,Clay,2.981709508864019,5.562035686456705,23.954101774401988,7.650260331685795
High,1.3343668565809113,1.643700259983926,0.044266577230224466,0.39038330072055827,Clay,2.4949631661431413,7.78731594311847,79.9963757360767,4.331675016479943
Low,1.2397759598276266,0.721187946239683,0.26964318794841036,0.4360735152946288,Clay,1.2631626745693487,4.681463578744278,56.74953279531264,6.303772464786408
Very High,1.0591880338242776,0.6809135191498531,0.45670161345335597,0.6419894488841079,Soft Soil,1.9031712421354037,4.926458119655673,1.5712954680038314,7.303174098716959
High,0.2546046087755437,0.8651370698896643,0.1945984044445453,1.1089439068971474,Sand,1.3139744800268465,4.530546783106154,43.50295380471533,6.82523498660418
Very High,0.5048624248143297,1.3777637990799334,0.41495334988275595,0.4572002190983647,Soft Soil,1.7010340399775203,5.188244339139418,41.38060775818553,4.7579571189878545
Moderate,0.5337296254514565,1.3961642095846878,0.06771413154531866,0.29776393612654406,Soft Soil,2.516184852216923,4.810455039197068,12.28058167500981,3.9401954366221257
Low,0.4499397249566697,0.6989549258339565,0.46776185034423157,1.7491987069113348,Clay,2.496694593638888,8.981110655009633,67.93803707154426,3.822003105442571
Moderate,0.8210079235936123,0.35309885585959455,0.37596023544812,0.13736908517635896,Clay,1.3018208313852475,5.799644864793403,70.50762164956961,6.436483089607558
High,0.8497753408315415,1.3015528872844664,0.4707258620006639,1.464585589071237,Rock,2.8288912999406923,5.171706057011613,72.36842868615767,4.9984641139245465
Moderate,0.5996403652395542,0.3438191381586526,0.33863199954270073,1.4396597542775376,Rock,2.1036500020826194,5.58448316098163,73.11862361030062,8.506409255086256
Moderate,0.5953048222310104,1.199135765635727,0.18233856206771407,0.6052639935366632,Soft Soil,1.635833440116432,8.712565071930605,1.0052298662973833,8.759549644834449
High,1.259977837068514,1.4175020433069871,0.4691524050898365,0.3305652472124328,Sand,1.9042582777178936,6.840721003609781,95.4381595808255,1.788547742264533
Very High,1.20500998764756,1.4311618431494582,0.13850782137828005,0.3475686993992198,Clay,2.131156757563036,6.141681433385356,81.60666793841165,1.448713150302684
Moderate,0.5309141643530438,1.531597010253234,0.16675408850880452,1.2856337493032273,Clay,2.0317591700607283,8.430261560591488,90.49418796233924,6.340969167756395
Very High,1.379303821422563,1.7584329009747626,0.3507034005828684,1.1927712048464953,Soft Soil,1.870091078179592,6.277456217470646,2.548686235435979,3.0821349058165666
Moderate,1.4339410238035084,1.0499220847330981,0.38289283346316777,1.4306676462273575,Rock,1.9108521689966804,6.007538564809631,93.4520207827882,0.2838501157744787
Very High,0.5574395588420571,1.4874734601061852,0.46477233844072774,1.693717993078478,Sand,1.1881062029413496,5.43277135147381,81.16906434012236,8.897562426693256
High,0.5961949283102768,1.2764281971950897,0.10319640211904854,1.2762765175532065,Rock,2.588012389470295,6.2000857075923514,83.88469515291116,2.346317595713702
Moderate,0.8078878147907423,0.45461588561559685,0.39920101957439275,0.36494761213745386,Rock,1.991872703870234,5.925079602076167,10.235451087474884,9.29987845168951
High,1.4175691375471429,0.1488103252518755,0.36953448064508476,0.5138524485011982,Rock,1.0883756957503468,7.547867816841634,74.13902486294117,7.202601063694711
Moderate,1.3268472063992363,0.6406286327861741,0.03283348357054534,1.5317293424842948,Rock,2.4855456234821114,5.803122171018272,96.03175227456701,7.650269550123695
High,0.24359514761702572,0.9417640420414768,0.19422434746389328,0.4558203289181546,Clay,2.8513767524301716,7.097398858901526,68.1761868003979,2.094468808352288
High,0.6498230405799826,1.272501294414447,0.1420999630729892,0.2232879388226184,Clay,2.884075178321317,4.796514742643877,57.48557905783604,2.418524813606448
Moderate,0.8747196656496805,1.7149227279560901,0.15294072175266116,1.2955760918718258,Rock,1.6118390113045802,5.360801205134314,94.61733809715071,5.260550762858251
Moderate,0.804385461572156,0.47286686174171466,0.4914904928977957,0.7842948043332414,Sand,1.098137121833659,6.33332372225107,44.850775051709164,1.8037885412336356
Moderate,0.37140829511164974,0.33854460080710647,0.321745929326484,1.6640680893280362,Soft Soil,1.9404791785927435,8.71627164258913,60.33006306473739,3.1237737575620197
Low,1.3023434796354165,1.9306119002012223,0.3591204027389563,1.2054336208592247,Sand,1.0477403045682856,6.19763393572063,48.15749105594225,3.2824785316832643
Very High,1.0477170961955722,0.3052846628151735,0.4883322010201896,0.2537122622458233,Sand,2.8547723207277578,7.488333545399254,93.35177591466962,1.6803363392023647
Low,1.273071724792525,1.0091330332036594,0.1892236894463617,1.7113561643312234,Sand,1.2038751801813212,5.647892500896292,8.532387949785218,2.1313100506120914
Low,1.302269991089261,1.2125710847072737,0.40111824405795016,0.539547348188418,Rock,1.3560848918925612,5.071651091879543,50.61085038170947,7.90666323588174
High,1.1476981951320357,1.1286113997241327,0.21783095068894318,0.6732612336906858,Clay,1.6946003591469352,4.763414700360226,69.0082916971584,1.755238960017957
Moderate,0.7148948417496042,0.26346109836259207,0.4348973022356749,0.7838427032620214,Sand,1.6429618308300769,5.874360743442381,79.39874730380146,0.3817281792548326
Very High,0.9547654570215943,0.2083511366068768,0.09114811311434029,0.18708130388733252,Rock,2.548258363275356,5.209474620586086,58.7188460969695,6.33061393202649
High,0.3245115685676404,0.30041851217596777,0.47389540235507555,0.9440762177920282,Sand,1.8038970052121173,5.283047016072559,90.98285666802394,9.762232881985256
Low,1.0431035844648708,1.2126165993579638,0.11016708249702896,0.30964143482799683,Sand,1.1756901720073412,7.923416887741276,94.2571532415033,3.379016764768902
Moderate,0.3509545580349931,1.13425528650521,0.16378403298348482,0.781649555370198,Rock,1.387861770069363,4.571271319251934,7.3676030961647685,1.274691461642898
High,1.0715294267142195,0.5441075048698141,0.37833992481928347,0.6962066395865433,Clay,1.9200494474125487,7.010145565809455,40.834683414596064,5.746834521138554
Moderate,0.42143742505555615,1.311770869506624,0.19748381564113796,1.4138281418250558,Clay,1.1243986183374968,6.207576212670592,3.3224431503942893,9.072906689846898
High,0.26457182021030795,1.6581282539057338,0.3044974770064569,1.465389869775643,Soft Soil,2.145642486421231,6.779474999588462,33.61224908006985,7.86221162030194
Moderate,0.3313982862001404,0.17900002370852816,0.2228421770336448,0.36080190006144963,Rock,2.0446440744125214,7.032736067465713,54.14995357908961,6.262907097285888
Low,0.10278898930669839,1.0464468927412807,0.37144259860780116,0.7231370185446845,Soft Soil,2.3723450960409673,5.910154625057752,91.16869812048493,3.219059316415234
Very High,1.1062354649949424,1.4096897829951116,0.11493729493193681,0.7347003737541138,Soft Soil,2.8629501538346087,5.827989870829284,84.80887792407488,5.464613715434577
Low,1.1253614686817308,0.5793926614324054,0.030170535631201627,0.3573977546913446,Soft Soil,2.8069600344225423,7.8003083220070755,13.622472940526587,1.003323928912128
Very High,0.8209066898785632,0.6847647200569832,0.15066476933906006,1.4573709585870238,Clay,2.8813663597514294,8.420746446545207,10.210007099348674,6.821559700378632
Moderate,0.32590792147753717,1.2659120156798294,0.23768002376934672,1.3022881581702197,Rock,1.3383743134521422,5.366617346063375,59.337466536910036,7.278450587086743
High,0.21697607251496565,1.8060770575431002,0.0848420060441466,0.423649036704959,Soft Soil,1.08944367460658,4.9392844224081704,53.67967927341949,9.653813066808196
Low,0.1267805530122018,1.6388563985755087,0.17804384753853794,0.7234272446094584,Rock,1.4650087410921868,8.540081128764117,27.37138650157236,2.6779338515762094
Very High,0.332047447751309,1.2079474162892088,0.20059152612849068,0.27986854225607416,Rock,2.769187380085892,6.074529586413294,90.04585537082968,0.28271854852592415
Low,1.3471977489764055,1.4874212637387736,0.029638530000448502,1.1679512150581748,Clay,2.9385176441716743,6.980928257982663,92.80927453669379,5.501523797828791
Very High,0.4381515783823544,0.7931626933948175,0.29207031684391804,0.3063322717326534,Soft Soil,2.6905148923550475,6.117944150340016,40.85853239567611,7.097225993528463
Low,0.5959798581041019,1.3178345033876397,0.4422873705576725,1.7760880866623603,Soft Soil,1.042038986480596,5.066110513557231,89.1399531542385,7.925034011241581
Very High,0.24748367827386644,0.9857450231423582,0.07671971356357316,1.427159526969366,Rock,2.884341595731545,7.151992402264776,39.01094053203429,2.018015436945625
Very High,0.4113058266474384,0.46087865926936566,0.2993061986873555,0.7634055342927916,Sand,1.7313876601717293,6.863133832963333,73.94486635114032,2.6913534034665343
Moderate,0.8269143990922871,1.4333027203667887,0.3327048632505123,1.0835586848749026,Clay,0.8204826396771782,5.413471016360387,48.11827953722469,5.174650160146234
Very High,0.9508537563339136,1.1572828109627618,0.21024800552922487,1.649281087567895,Clay,1.7732662296460262,6.53341070093525,13.135732494211116,3.3729480187030187
Moderate,0.4434932398326955,0.7813810057118236,0.35084769609477073,1.0419687766729044,Clay,0.9013521732860288,8.086263768070406,92.86548592246513,8.619063717215706
Very High,0.18082502291516409,1.8315444611493985,0.20595504020201502,0.39664742687652377,Clay,1.9965314265544587,7.156917463985511,45.955562744376124,4.790225522013331
High,0.647446016778358,0.1397748238707932,0.25281400670074,0.7437957044879708,Soft Soil,1.544818860361513,4.9361279718014766,73.71421699191797,8.01582857660983
High,0.4278847192968678,0.6999689873740423,0.004669169232659063,1.5333462705505672,Soft Soil,1.8415568539069074,6.966096737531108,37.35020762869792,5.848135628775302
High,0.40737549252172267,0.20807465577752846,0.3461683369532097,1.1951621271823505,Sand,2.1489747936348573,7.6623223468031405,2.8692069790472314,7.753592402009408
Very High,1.4438079237988373,1.5564019008210916,0.33100999679341747,1.2062314533674605,Clay,2.7113624107992047,8.06716532601338,10.952505510491754,3.3934625666502063
Moderate,0.9628206802960136,1.434004162816206,0.020162037785845938,1.5735965256704316,Clay,2.256183468238243,7.331029103854201,50.12572846950251,8.33102455711008
Moderate,0.8796298204409342,0.7295692155990023,0.1847568035901714,1.619754197686258,Rock,1.7549075106519978,5.186961740433527,69.30647135550987,2.8182659239551135
Very High,0.6820851449326506,1.383759514193439,0.489536888555042,1.6636473720250418,Soft Soil,2.602741278074803,7.6957796996557235,34.13879733134863,5.506378199232579
High,0.7005220668022019,0.8522807297723046,0.2109475447217398,0.26124362853036537,Clay,2.792280702660891,7.548038307366824,69.85335745858738,2.218670420421355
High,0.8572670053733131,1.5368822037026253,0.25147075716078904,1.0250142033372716,Sand,1.063471926150834,4.60992097323285,70.16492335376364,4.807712564099314
Moderate,1.07500172985055,0.9629489591997414,0.45505514892169957,1.3588661860711417,Sand,1.9702525506161412,6.352864504156094,70.68965482545525,3.2499345741361614
High,1.0830045346545611,0.8833314828801645,0.35891367605701247,1.3867756367159234,Soft Soil,1.4259263114333773,5.99827611133068,49.75966354803033,2.7403639633084214
Low,0.3403714707876294,1.875986839427772,0.29145299543098757,1.1314175433490066,Sand,0.9035346353292844,7.5123542891413955,91.5737288620289,9.673151678477572
Moderate,0.8001578529072777,0.5766702897923304,0.3991045359891952,0.38353846981224604,Sand,2.270802729250768,5.472611155399143,49.43045528008094,1.6847336443186334
High,0.6767413330477426,0.3288499459934743,0.43231876696153065,1.4556149417008295,Soft Soil,2.6980957104102963,7.158923653384163,45.57625415616718,7.894525790828213
Moderate,1.3187377527771378,1.2106319151929705,0.22898714779689616,1.3241892669754078,Clay,1.158385839850267,8.609426828163777,20.73870108205207,9.843233098883827
Low,0.9839864897057269,1.9417114433399398,0.23807907410098586,0.2464308116333617,Clay,2.5873100467725814,8.090110674938735,31.457853648277315,0.29702468902677054
Moderate,0.8455056929823744,0.8178945060816546,0.19363941689026606,0.8884767019464396,Sand,2.6774706137812716,8.646559812974386,5.191114759312031,7.0203713990167405
Moderate,0.2615524990504843,0.21786985089468489,0.4833863638692118,0.3957615791870661,Sand,2.8115489738662642,8.903276851197106,63.71999406800085,2.603826875007243
Moderate,0.9478930450527759,0.7446800078881781,0.34888596089088486,0.6737109777120521,Clay,1.3836271959893154,4.548015571527732,25.605038648782195,0.5008294608502141
Moderate,0.2640854679523268,1.061270143207161,0.042528310037828074,0.13073785674966523,Soft Soil,2.7886967434177565,7.302335743698649,31.111370194061045,4.088606831670645
Low,0.5720892057920529,0.4076537126012061,0.4316168520331962,0.780560776298289,Sand,1.505458060420151,6.357777289915079,77.3106376447678,9.358656320691663
Very High,0.29997875074006464,1.3503942143073349,0.24079941047729778,1.0347907659655577,Rock,2.0151436296021066,8.369345206508047,33.394897132983935,0.2164744342332771
Moderate,1.0689031058341165,1.9957238391193812,0.03530819930482124,1.1532904078060477,Soft Soil,0.9111164358310208,5.633166159041092,24.977393309301075,5.920068350104838
Moderate,0.3887529593706136,0.9583050043647432,0.27530891032649224,1.2279335867188073,Sand,0.896538394411236,8.914632701017844,17.736717164236868,5.06382513809371
High,0.6486031224632364,0.773984257787404,0.20916497520887534,1.521695232274182,Sand,2.3848210680108464,7.261685862946862,77.71098181601363,8.74650322727337
Moderate,1.3539446886662903,0.8613379169854866,0.4389969530264498,0.466286942368741,Rock,1.7778559515511403,8.07091831002974,13.840919541012662,0.931616973754194
High,0.3860429367585584,0.31877773895088213,0.1027933072010843,0.30481909814539554,Rock,1.3638432258122788,4.885197987702457,45.921622264785,6.847107695877838
Very High,0.8109270895422906,1.7782198427098252,0.41340584013659926,1.5476131922264738,Clay,1.2189096912548025,5.325560481414893,51.18608149164225,6.833086014489445
Low,0.6869803256324307,0.8881687454905687,0.2792866569015409,0.36624178531750484,Soft Soil,2.27389767989028,7.912816528653915,69.05160135588575,6.723892166936604
Low,0.12537365746402163,0.8358213817071984,0.028250541303521056,1.757092138271532,Soft Soil,0.8008833968557477,4.598939349176956,63.69506475096655,9.429111499856866
Very High,1.2098613590019378,1.3534115185679012,0.4859508053614168,1.532314989977683,Clay,2.5729605722330797,8.175950936522023,81.2613466215723,8.248566537168116
Low,0.1966642688404396,0.9398634997691346,0.2567950068074968,0.9514902300123185,Soft Soil,0.9743491334858434,4.5627705841136015,5.430391958697577,0.5155299898107095
Very High,0.763957029367735,1.3316435907349076,0.14614755026155968,1.768416422367443,Soft Soil,1.221277152797863,7.45703477577573,30.34763175316032,4.763720221974681
Very High,0.8849496129145299,0.21674795124849627,0.23523401415263978,0.26554043948360717,Soft Soil,1.6497200696579972,6.142922641043127,28.733277758762593,4.039735256393201
Very High,0.9797970392604218,1.6460743530722322,0.429071033975227,0.6152117939976728,Soft Soil,1.866689227375428,7.251726837236395,15.455673653618714,3.1704574887989407
Low,1.0640842810310258,1.886957510470865,0.1531466590681467,1.1849815055690396,Soft Soil,1.580989254790672,7.632141331451011,29.628647131787872,4.568233579025563
High,0.45458133693180114,1.3326542337028333,0.09714552184686345,0.6950116764044039,Rock,1.5055667629654468,6.041138486338369,31.666766100147438,3.903522430767177
Very High,0.11397028732182912,1.9136752648317403,0.06540655221850984,1.6782333383673462,Soft Soil,2.920615226561015,4.98583101649876,52.66656173082035,4.380105608798787
Moderate,1.1128211272968769,0.3877213973029302,0.1496318397967154,0.21156434990228987,Rock,2.2114752987354676,4.813406404867195,66.70674341369934,9.794692469525561
Low,0.8499192390866099,1.007090760012672,0.3902439954329817,1.0340001145036397,Soft Soil,0.8515525018082541,7.150212101531466,38.72895084756959,0.9774664500208495
Very High,1.2705647844901482,1.24343279449635,0.23634155623243558,1.1044726545716947,Clay,1.7463869985774891,6.8429490918035025,72.22755290002473,9.230085611403425
Very High,1.249943708060972,1.2052996301002548,0.11451332024307645,1.209637810421281,Sand,2.7250191394367347,7.8399045410450965,34.28036851937842,4.854343463363164
Moderate,1.2806566349030364,0.862777380269182,0.08392631480526484,0.5346325796640845,Rock,1.4632036101034696,6.793809795017717,29.738084054161273,6.275048230445457
High,0.7791325239713561,0.7423603777958966,0.16703200877867916,0.7197629267837695,Soft Soil,1.0080239585036541,6.401006055138956,54.57761752984541,8.318811369515169
