Seismic Zone,PGA (m/s²),PGV (m/s),PGD (m),Spectral Acceleration (g),Soil Type,Site Amplification Factor,Historical Earthquake Magnitude (Mw),Fault Distance (km),Seismic Wave Frequency (Hz)
High,0.37890138485167435,0.3120266999187702,0.05718264279806804,0.6340755085228525,Sand,0.9391574995770952,6.875154487330294,22.203449021219097,1.6831411257388627
Very High,1.3463010036906442,1.2558070500147662,0.20448123916867517,1.7285508130201719,Clay,1.0897609774539814,6.829334227790852,6.947243667143262,4.041679985876774
Low,0.5023734350518116,0.6339945253170893,0.4433038006181107,0.1568200731403564,Rock,2.6892389307650766,7.100446866484091,33.224830474487405,5.841681420011114
High,0.614900382858614,0.4296424956745418,0.02455115414699212,1.0856478345160236,Rock,2.194323226444033,7.871919098140955,15.22507489323706,9.485727490343614
High,0.1813287329124897,0.8215278935467031,0.4807468932013827,0.38305602998417565,Rock,1.3570425594139488,8.841107154728075,71.28337426999038,0.7806344256779054
Very High,0.25611709724978693,1.6227469748236119,0.3399021215914618,1.3107743488011698,Rock,2.021650815721999,4.831035093970946,53.838815953473,5.12320152906511
Low,0.8222066637972593,0.8449777961186881,0.3160566128440449,0.3990134818117256,Soft Soil,1.960675169335771,4.740455710759577,15.239612628040778,3.3563058042861718
Low,0.4746297474191601,1.526462333501006,0.1360090689875077,0.5001515452272078,Rock,2.241959152569455,8.718976518333022,1.9149172521459223,5.132285773339276
High,1.2696723160390722,0.3384239639183863,0.12514710258084935,0.9404303787777887,Soft Soil,1.313012619727556,6.884440314831927,81.00754785339706,0.3373569290276636
Moderate,0.12057074411693539,1.5682656973636504,0.4710870515248091,1.6552194149946928,Soft Soil,2.701686571827675,7.267063565551212,18.443246210260504,3.198951011545655
High,0.6307316681407106,0.5501733173226324,0.14983795466282726,0.4599144326515504,Rock,1.4806108365760284,6.67090620717628,61.01544757985583,8.21669466051735
High,0.5722837654767298,1.3870469467888584,0.3879771430627807,0.345208035900776,Rock,2.3270896387477213,4.921458536733635,34.35526939459781,5.584023165160911
High,0.12705868328464145,1.1749849541978932,0.1971677773053325,1.390260614151852,Sand,0.8354742220188728,7.956402202884,58.96310789318852,4.560766678879562
High,0.2741157586007143,1.865374962702206,0.07048778132156729,0.9510532049676826,Clay,1.6198456857671242,7.8625109028986415,32.24970907125008,2.926698209981862
Very High,0.6790997448860893,0.8359127841530966,0.0063469335499841155,1.6500346910490113,Rock,1.5737615995093783,5.902664946717654,9.607016508533162,3.050620975634424
Low,0.7900104182264253,0.22571385878543684,0.27258441117061016,0.3492447471717319,Sand,1.995665742882632,5.878076603527802,23.072050847217607,3.8927041925467862
Very High,0.6660056461568167,0.13639542254738052,0.4879136304559174,1.198077418139167,Sand,0.9600197759098323,8.270286214074833,19.617798081428482,8.372150028649148
Very High,0.8433127497769313,1.671031265848231,0.18519896071079303,0.49589454845808556,Clay,2.5382890221974383,4.82560765983597,43.37391589152474,9.675410747401857
Very High,0.9331843448679541,1.096997711556721,0.1792389746625294,0.3664927287077868,Soft Soil,1.2791177638886508,8.464973167604546,66.17009455918958,4.442688275368708
High,0.11389334957896989,1.5729636984864037,0.17270171730687162,1.26183000576736,Rock,2.2894831927404224,5.654977604531615,27.1168014196894,3.9941931036028424
Moderate,0.7497332232349053,0.5454086400218779,0.26075137481512434,1.1092638538448465,Clay,2.567066671137005,7.168431364899723,2.1949235947611774,8.480852680616643
Low,1.4488989372426238,0.755659116475144,0.2208917768287225,1.3832066792159632,Rock,2.036129303731329,8.711973805507998,52.37479906221093,4.326362674299405
Moderate,0.8266451921813681,0.157197357201506,0.4400773987367802,0.62608637995851,Sand,2.4299430547883683,7.551551256914909,60.970189446538235,5.564979905726947
Very High,1.0485591744425344,1.926835416690813,0.25325487507002165,0.8615518158497228,Sand,2.2560926868730125,6.364934156101665,96.32417890617916,2.38632247952757
Very High,0.5366094010836364,1.3689490227315455,0.2543711612560958,0.7893018497617114,Soft Soil,1.5821655537344168,7.602903940074368,59.35760950623144,7.460675104212845
Moderate,1.1835879294138676,1.8730896667426817,0.07004742576555774,1.772952088743074,Sand,2.579488785873844,6.047908363423666,47.64608337843604,5.36668435088074
Moderate,1.1820900746265612,0.6044431741152374,0.4913870309142826,0.5968232264569594,Sand,1.4483430137481617,5.747662873571338,57.76676096387268,8.109442047379382
Moderate,0.8298144667157945,1.2617808613287556,0.125736472543546,0.6011893051895036,Clay,2.056668419053338,8.985074750706058,92.86216235634068,7.82925402728383
Very High,1.466419352590899,1.3891499397560119,0.037608669662341734,0.7027319550086325,Rock,2.439875026111387,7.878556040309045,83.00943641456298,2.228547205873283
Very High,0.2757703006677147,0.703344430489418,0.33190997823862917,1.0598099381935466,Rock,1.633703001587517,7.401239898218179,32.97489460301699,7.184791950521848
Low,0.1237267308454134,1.7114075465296972,0.29808781870827944,0.5289486652483669,Clay,1.4660887367583353,6.098803394486934,24.48818200205659,8.020538638718577
Low,1.1782214964599345,1.899606779510471,0.2081576813423801,1.6559928986447656,Soft Soil,1.8105612223802101,4.721223731197717,27.00072762424129,3.5264616837457115
Very High,1.2300177523108355,1.7812247236224081,0.21167392470645835,0.551665460272648,Rock,2.5995196875681383,4.6397559421582,50.93768293180609,1.8088302177325182
Moderate,0.26829012076880676,1.5042272542848079,0.39274689660216916,1.622886743652331,Sand,2.8458278789204625,6.993815649519595,74.6608956716292,0.12605834023792298
Moderate,0.47181596614204846,0.6271828914774126,0.09866060740972488,0.2759076081991939,Rock,1.9991835082917584,7.92914724467573,50.81870151111325,4.563946165622166
Low,0.12457330871328048,0.6350704800007002,0.4103064061535,1.216156594079409,Sand,2.255225651712034,6.918206356997348,7.711843186983146,3.589084042234532
Very High,0.5106320550927905,1.930384608847472,0.32472480983361407,1.6418753813450144,Soft Soil,2.7872019689256113,8.283532823726016,72.63448934355812,5.593607354871549
Low,1.18239862348614,0.11954054227781485,0.21006591711598266,0.3868740452769902,Clay,1.0168030731084734,4.650419398919498,80.79104273842444,1.9616068166289793
Low,0.8251447387976104,1.4604949491600745,0.22955627967535044,1.7461558321687336,Rock,1.3105728713055633,6.1503843439167305,29.660288646852244,8.610688921898104
High,0.5873338304356033,1.4418677088549983,0.1290669563858618,0.8699017127063698,Clay,2.3595800137534813,5.5668167602838015,66.74844818905169,2.651776634718286
High,0.6204350128688624,1.283110127804615,0.37630505201579045,1.7077156843497416,Rock,2.6122378162070596,6.512728356707049,43.23259820438494,2.341653090367735
High,0.10189507600165543,1.981206807565045,0.2569244964103286,1.25059407417108,Sand,2.6854638623272713,4.825693769373551,89.02281621701684,4.859069159195124
Moderate,0.5197207385913303,0.6925709279510779,0.16110641683217194,0.6126976787850376,Clay,1.7132357890808518,8.793592387069825,84.67733025791324,5.038625135068315
Very High,1.0050422382931026,0.7459465412071715,0.29842900776471415,0.42011429235908093,Rock,0.9965477850421071,5.5046493048121246,53.017767832654584,2.2293437649724193
Very High,1.4638722213429,0.24998486559845554,0.4978714915736102,0.6163495785826689,Sand,1.763119250059164,8.65038498967613,69.45904903554585,2.791421194586566
Very High,1.2858851577774593,0.941316459433101,0.21819587754862035,0.2581295957465475,Clay,1.3076160984555183,6.4165191976650675,88.4516204011883,1.780081867636925
Very High,0.13303295050374078,0.5959921998462113,0.46042500898853117,0.3445755427836606,Clay,1.4406322009925732,8.934858599648482,50.075983997749276,7.212755765399351
High,1.357984846544775,0.7524347341375239,0.17316340312235848,0.27792274858901794,Rock,2.498988625042513,6.993262725570949,32.011823308393375,7.7238814094154105
Moderate,1.1964777786180762,1.6856864014856925,0.028311620755567958,0.8190040243606481,Rock,0.9661595892569512,8.688747888791134,75.61294765304855,4.677052124846898
Moderate,1.1925265729993726,1.877420575702242,0.102916811077846,1.452483239637897,Rock,2.620678678457545,4.524070449124003,22.786559223684485,7.169461524581672
High,0.741194062605,0.4528928368098527,0.20992887652051442,0.3403520421677783,Sand,1.740871988813172,7.86707462781405,39.464583652598165,7.38576038018071
Moderate,0.6572074101363039,0.8077669699515851,0.11059782936868993,0.321544736392971,Rock,2.1113406484213093,8.56372793896132,86.70699647357257,1.4689277240103051
High,0.5240820203664697,1.8643980680192487,0.0011132920709095132,1.1938292141794624,Clay,0.9972349087184939,5.128742551405294,72.71781168666219,9.665162445861913
Very High,0.1919728025361121,0.217436075309523,0.4575857673360161,0.43521106934571263,Clay,1.5421899723860153,4.932566332794682,40.97728951950243,8.228216276254667
High,0.4195295088911787,0.2754850034116192,0.4220958262042336,0.2659370647852857,Rock,0.9973420218326607,6.4105767323368,22.25970573842738,2.1243862658386528
Very High,0.4452450889692344,0.40930287949183575,0.3714038235119866,0.38364258294948195,Rock,2.9153961903384413,8.701555077598208,36.24087069239142,1.9430338538860956
Very High,0.7777078975942822,1.2309043848410621,0.08473948322736828,1.6703433729905195,Soft Soil,2.5759756285177513,6.940739520856974,29.126310773515865,1.3440453412378692
Low,1.1464221692353715,0.38589731491139523,0.06106142452878304,1.4965011297195245,Clay,1.8111920595842126,6.873554086747795,18.43283950644154,1.469947769164992
High,0.7633337597571251,1.9393451247563935,0.03473476998671919,0.7019097560036599,Sand,1.2919256063120765,5.135067532346948,74.58995844300001,7.506801810384092
Low,0.18098222922602486,0.9487576017911886,0.3622905651976877,1.2148953044565678,Soft Soil,2.853601231549675,4.503552799919484,25.95491879816698,4.749577143821073
High,1.4409057213834855,1.052884124665316,0.46447517238325475,1.0133686452356647,Rock,1.5581125105993379,8.145630408354576,45.962579546608616,7.8510483101246855
High,1.4198140467317573,0.5686513700302723,0.21583737463560546,1.2511112479203588,Rock,1.1541657497122246,4.894085533438072,39.2000852367748,7.487923454067033
Low,1.1992653604077717,0.9948244796259936,0.06045119532602804,1.260540959186691,Clay,2.038961654598701,7.352324184308958,98.22566048492745,6.085665863701694
Low,1.4878590621899088,1.357635902010322,0.25668401754532116,1.168847825601988,Rock,2.876303064758596,8.61577404531836,39.71813217067383,6.895029405128927
High,0.8622752659203681,1.5272365602126812,0.17506712182185644,0.5523723265134246,Sand,0.8084266391007097,5.438933609212939,8.918265796878725,0.28172167135350373
Moderate,1.4478756903544885,1.5323493571488347,0.18803763725064884,0.16631091529679082,Clay,1.3238746551587974,7.493727763066099,9.892749504636319,3.1865987033697176
Very High,0.2058470568634511,1.1979931141187679,0.31104398145369794,0.874463529383185,Rock,2.8645848089028974,4.854143595183793,59.48461841395341,6.414439574668161
Low,0.6119530475659198,1.8182835724883288,0.359640338517839,1.6146556039741966,Clay,1.1763891270857565,7.216898147269259,60.3369916220883,0.1925150395138176
Very High,0.4155337752094721,1.6530749098816078,0.056191195837707264,1.068145339481579,Rock,1.0491355936076037,5.237692744289412,42.457140057782844,0.4264717424576747
Moderate,0.37416631778797804,1.5383914179273883,0.018759525172431717,1.5150647708932434,Rock,2.0544118747595697,7.811791022318301,43.752525538890936,8.533691026456793
Moderate,0.2971241284497465,0.20565049119287518,0.49717082104017174,1.785761383034088,Rock,2.696056411248626,5.855540826572587,6.33932570124625,6.871846130751511
Moderate,0.9713790981923952,0.1130681282173337,0.11713144610886037,0.3781475470350697,Sand,1.8496415989266377,6.585259539620909,52.138104528536964,2.7271603578914054
Low,1.193850598046227,0.5036498266713986,0.02786143192932108,1.27602198654137,Sand,2.9880413647059543,7.197437439124298,50.969208062654815,6.910832117175219
Moderate,0.9096177591885048,1.3606948284355593,0.09574778921886407,1.246299075290042,Clay,2.2941777389835845,5.270730347998078,15.80538253713751,7.945321024478706
Low,0.30574779342349356,0.881275228876837,0.020439965327883648,1.7659242605090735,Rock,0.9629647958629851,7.837370183779294,11.28009922498183,3.1372634027900026
Moderate,1.2355732779068593,0.8645718926686923,0.19651363641396866,1.7755212477197606,Rock,2.984230689700346,5.861881532865666,13.233676569349559,0.45677003724195575
Very High,0.9903365900292198,1.780715087636266,0.4013984904412108,1.2673536399310201,Sand,1.697367320916419,7.480673369607391,11.001796402634593,9.334513334408571
Very High,0.6434319885777937,1.8015694114504937,0.1712809804291026,0.5141451463697303,Rock,1.4322855744600616,5.212273728147181,61.36111135813922,3.517280399126742
High,1.043782413750488,1.827433001701813,0.2226475200323049,1.4575449248220185,Sand,2.0273342038713484,7.596529466428576,20.451782587888943,1.1541694565185932
Very High,0.463866970939966,0.6963683453785519,0.33811780001015196,0.2819495281587648,Rock,1.4694767020059016,5.076846327647078,25.891585066558882,4.969383026792159
High,0.5832690918918947,1.4130060442045973,0.2549381409648702,1.4271888170917688,Clay,0.9902065156643352,6.4141042332149265,18.183642270992532,7.707831177074925
Very High,1.3844801803847864,0.6161030444213023,0.4308613973246408,1.6473334110459839,Rock,0.8031423547741888,5.612427331824946,95.8256951404018,2.2943084147138357
Low,0.5067063079399885,0.46215868284145456,0.4331518018478325,0.7508167711063399,Rock,1.789083376424577,7.867688622426821,85.6071288520317,2.7679514963202974
Very High,0.7579835754211112,0.4508016689600015,0.005945437050085668,1.172080001471237,Soft Soil,2.6410995288985033,5.679157520280936,23.818988897800565,2.5028783693059733
High,1.3461975923544205,0.7500044796408286,0.3892451069351164,0.8312426445646046,Sand,2.0590934083861683,8.467727878779282,33.42906309829047,9.917563223033614
High,1.0908098903745385,0.9169194775816613,0.23090606652059525,0.8442005934798184,Rock,2.9982560576755697,8.513190951329758,21.779391388194718,2.054296963932371
Moderate,0.18708451663058384,1.67880342500463,0.49443143011052787,0.627630511483804,Rock,1.4310626204238401,5.383985918502536,49.69571998662155,5.797650147964627
Low,0.30622426199055847,0.327793077598153,0.24213280586184213,1.395620354765552,Soft Soil,1.4170011424721218,7.262306752534759,2.9414427149511058,9.260119952403947
Very High,0.11097822708068356,1.496359110050299,0.49346107674876044,1.691500159083059,Soft Soil,1.1514488125146773,4.894729387739839,67.46543288078277,1.5542760318900146
Moderate,0.9832905063208287,1.1097643369596801,0.3775301112416626,1.699276460698584,Sand,1.1609398941837374,6.261916948207332,52.79265683194652,9.711456558890232
Very High,0.7267427955745855,0.6470961510843857,0.12505383742203985,0.3971281842873875,Soft Soil,1.4274105112221052,7.709947782755725,89.96525390180922,9.480024620516684
Very High,0.28798479126318577,1.0363572106123666,0.26965909466419186,1.5870642044161622,Clay,2.54424809960176,7.467404610824623,17.274875748513,8.8572626718768
Moderate,1.4411077694794787,0.669889932576343,0.4960756840998128,1.3536334504261076,Soft Soil,2.7926649394001855,7.311153012329736,80.60681536005204,2.2241095611670225
Moderate,0.8415236135238677,1.2325557149527815,0.42890777326820995,0.5298235811734917,Clay,2.945191773356899,5.771433886480996,79.40414043220485,6.377145054508735
Moderate,0.4386506117580449,0.9243034534249639,0.04958608000181933,0.21438384196657473,Sand,1.311037239012196,6.201112272454809,13.590937732471806,7.632825582316277
Moderate,0.8008449996165905,0.4123705052498696,0.35347962640818803,0.5555953537034426,Sand,2.7388546003510017,4.963257651151288,40.45736319026863,9.861676489144655
Moderate,1.0514684658291509,0.3215078416558238,0.17344421334953572,1.6507540025285936,Sand,1.5221611964101416,7.735602691951204,17.84511147330717,1.8861958386055673
Very High,0.20673490516299026,1.1387217959370473,0.0044841486782937106,1.176403747322813,Sand,1.0482491979371458,6.767499585560731,26.217329545297343,7.6836564052410345
Moderate,0.48458534106704876,1.8145847632435965,0.2023370035444728,1.3257929235263821,Sand,2.7140548361443644,7.689445345555446,27.06137130822389,3.4541315822784187
Low,1.229751687237591,0.7535196044596025,0.11814245644076067,0.537158996885463,Clay,2.199432396215961,5.620245861585928,56.0674030085515,1.8387020091232231
High,0.7435308185637257,1.4927002037229842,0.4096157659897153,1.3229598644771945,Clay,1.162407971378336,5.959972028857798,41.72968224428608,4.271631718017164
Moderate,0.8652079988452128,1.3514565743855573,0.16932797381403697,0.1478065606724704,Sand,1.7456287665286059,6.003969017670515,94.82554759662423,7.958975530271302
Moderate,0.7059424030932568,1.8699543371880138,0.4139343232829547,0.7380462878141234,Soft Soil,1.431966928729549,4.615840843862473,13.510644052753507,4.702013056670116
Very High,0.16145991970020718,1.6598639328683678,0.001298371478562859,1.1654806925219632,Rock,2.4209480511624335,6.034715427737806,97.39552135016967,5.42147869201018
Moderate,0.3320496917482183,1.1765499919203797,0.15460175586303346,0.3483641614202444,Sand,1.7975157073733898,8.114870580831152,23.83322538121213,9.9520781609812
Moderate,0.7237582942386472,1.348357946644804,0.1213414419395732,1.499106076559789,Soft Soil,2.9764158792340467,8.537843230873824,77.51451970180345,4.051182065618518
Moderate,0.3928596515710989,1.8069342865096663,0.11755011317323688,0.4995532079802617,Rock,0.9204389609711093,6.8319824203616735,34.55802269110932,6.192467471621474
Very High,0.16997064012355023,0.859085690715176,0.03502512326296588,1.2088778917913587,Sand,1.5810335854997428,6.549757628486491,15.165058146314077,3.7159175959921815
Moderate,1.2811095296725532,0.7209099411297769,0.09437501093484037,0.7888351423780604,Sand,1.8601803676419504,4.638710784147166,85.93102933937776,3.9885778986541793
High,1.4736695408297622,0.12054105890687306,0.2782192353729243,1.1132741123120002,Clay,1.9068938204463037,8.456419519134222,31.577229024409856,6.98684345910954
Very High,1.2104000235954353,1.6704470409637822,0.1463891753460345,0.2826659394691438,Rock,1.495058809248401,4.558545960416427,66.22668501845737,9.385081063339346
High,1.295298890386534,1.6218633307663932,0.20927999638224482,0.12875175986673246,Rock,2.40432854801465,8.751375360945953,57.07792482357603,5.4693536098739814
Very High,0.4387679824438635,0.29846358439028764,0.18905657329324707,1.646259526546512,Soft Soil,2.7244435616757445,6.701473119096407,47.70387462969656,7.707159296592921
Moderate,1.4448777657184797,1.1960290241521305,0.4380765575749474,0.5583710149042107,Clay,2.8651824643512986,6.0387052210862695,50.08612779220537,0.9831449322879419
High,0.3756959862347997,0.981565226517086,0.4527442005062472,1.4934509047267805,Clay,2.571205428958958,8.65898295679197,73.49155349513647,2.190464570576077
Very High,1.4320017345065652,0.32554728146731177,0.24698552885627417,1.7988955108027405,Clay,2.6712764340745188,4.609759468995435,9.689518498220616,5.071103245103371
Low,1.4927470115523314,1.9630796314153747,0.1657478192074866,0.45943313859814894,Clay,2.01119966136399,7.116412026910892,67.14988553383262,0.29811606392487044
Moderate,1.0964119280444682,0.5079221861803753,0.05429355129717946,0.5507902600117045,Rock,2.6169540981389923,6.970196360247019,89.6853980384593,2.6032642897493323
Very High,1.4736012245085506,0.22774494217206617,0.4767480368116654,1.2268616389789317,Rock,1.467708600125495,5.486941805451219,6.721031504966551,5.222272769267165
Low,0.8973556913939451,1.2302100210536282,0.03105324550524843,1.7412626788210561,Sand,1.6766532766402718,6.429993441075948,14.924680584133007,0.24811586273737707
Very High,0.4633584964465265,1.503846686552762,0.14952748850657194,1.6568843919242646,Sand,1.4972086304007974,7.435188026746966,71.94656173350111,2.719008233637813
